{"type":"FeatureCollection","features":[{"type":"Feature","properties":{"nom":"Toulouse","code":"31555","codeDepartement":"31","siren":"213105554","codeEpci":"243100518","codeRegion":"76","codesPostaux":["31000","31100","31200","31300","31400","31500"],"population":514819},"geometry":{"type":"Polygon","coordinates":[[[1.504688,43.579818],[1.50484,43.579725],[1.505634,43.5793],[1.50589,43.579139],[1.506758,43.578649],[1.507662,43.578254],[1.508522,43.57798],[1.508877,43.57782],[1.509435,43.577504],[1.510503,43.576724],[1.510675,43.576612],[1.510888,43.576542],[1.511122,43.576555],[1.511566,43.576635],[1.51227,43.576789],[1.51274,43.576807],[1.513088,43.576904],[1.513049,43.576762],[1.513102,43.576518],[1.513156,43.575969],[1.51323,43.57589],[1.513625,43.574863],[1.513694,43.574628],[1.513638,43.574113],[1.513576,43.573791],[1.513649,43.57319],[1.513666,43.572759],[1.513637,43.572666],[1.513359,43.572261],[1.513343,43.572163],[1.513434,43.572068],[1.513687,43.571926],[1.513793,43.571779],[1.513784,43.571682],[1.513589,43.571272],[1.513575,43.571119],[1.513619,43.571016],[1.513749,43.570932],[1.514789,43.570596],[1.515236,43.57029],[1.515356,43.57011],[1.515341,43.569949],[1.515225,43.569368],[1.5151,43.569289],[1.514915,43.569075],[1.514387,43.568422],[1.514369,43.568151],[1.514901,43.568169],[1.514767,43.567449],[1.514562,43.56664],[1.514439,43.566325],[1.514313,43.566075],[1.514191,43.565753],[1.513694,43.565065],[1.513639,43.564968],[1.513953,43.564866],[1.513537,43.564205],[1.513352,43.563996],[1.51326,43.563953],[1.512981,43.563634],[1.51244,43.563082],[1.511468,43.562121],[1.509683,43.560652],[1.509689,43.560538],[1.509889,43.560381],[1.509043,43.559825],[1.508668,43.559379],[1.508516,43.559231],[1.507103,43.55813],[1.506304,43.557545],[1.506147,43.55742],[1.505349,43.556857],[1.504697,43.55634],[1.504423,43.556221],[1.504141,43.556024],[1.5039,43.555823],[1.503381,43.555495],[1.502408,43.554908],[1.500963,43.554139],[1.500574,43.553958],[1.500188,43.553851],[1.499391,43.553665],[1.498969,43.553587],[1.498226,43.553517],[1.497947,43.553605],[1.496614,43.553594],[1.495436,43.553562],[1.494796,43.553566],[1.494442,43.553581],[1.492541,43.5532],[1.492375,43.553183],[1.491827,43.553074],[1.490968,43.55362],[1.489351,43.553115],[1.489131,43.552905],[1.488418,43.553292],[1.488087,43.55302],[1.487986,43.552982],[1.487766,43.553019],[1.487336,43.553256],[1.486842,43.553493],[1.485924,43.552788],[1.48551,43.553055],[1.484477,43.55378],[1.483956,43.554086],[1.483726,43.553888],[1.481706,43.554389],[1.480972,43.554562],[1.480871,43.555059],[1.480804,43.555275],[1.480475,43.555906],[1.480136,43.556397],[1.479753,43.556919],[1.479439,43.557273],[1.478975,43.557242],[1.478081,43.557227],[1.477671,43.557243],[1.477279,43.557281],[1.476841,43.557138],[1.476672,43.557054],[1.476522,43.557081],[1.476434,43.557167],[1.476291,43.557182],[1.476028,43.557025],[1.475784,43.557027],[1.475596,43.556914],[1.475404,43.556681],[1.475176,43.556555],[1.474755,43.556414],[1.474609,43.55626],[1.474164,43.55601],[1.47382,43.555929],[1.473395,43.555624],[1.473014,43.555472],[1.472524,43.555212],[1.471964,43.554476],[1.471631,43.554133],[1.471552,43.554027],[1.471156,43.553657],[1.470866,43.553451],[1.470639,43.553337],[1.469946,43.553089],[1.469307,43.552836],[1.468956,43.552722],[1.468647,43.552571],[1.468252,43.552406],[1.467623,43.5522],[1.467318,43.552078],[1.467123,43.551941],[1.466703,43.551547],[1.466307,43.551337],[1.465671,43.550858],[1.465362,43.550672],[1.465111,43.550616],[1.464949,43.550537],[1.464668,43.550314],[1.464075,43.549766],[1.463502,43.549528],[1.462974,43.549182],[1.462551,43.548779],[1.462182,43.548363],[1.461912,43.548095],[1.461199,43.547512],[1.461107,43.547414],[1.460987,43.547172],[1.460994,43.546889],[1.461195,43.545926],[1.46118,43.545095],[1.461234,43.544817],[1.461608,43.544302],[1.461881,43.544076],[1.461673,43.543504],[1.46111,43.543511],[1.460638,43.543587],[1.460169,43.543631],[1.459909,43.543636],[1.459584,43.543534],[1.459207,43.543346],[1.458811,43.543085],[1.458584,43.543186],[1.458434,43.543083],[1.458176,43.542792],[1.457354,43.543329],[1.457163,43.543428],[1.456891,43.543134],[1.456418,43.542579],[1.455781,43.54197],[1.455319,43.541578],[1.455066,43.541289],[1.454705,43.540742],[1.454701,43.540616],[1.454833,43.54036],[1.454892,43.540054],[1.455026,43.53978],[1.455133,43.539669],[1.455373,43.539529],[1.456284,43.538663],[1.456521,43.538466],[1.456845,43.538144],[1.457351,43.537685],[1.45773,43.537239],[1.458445,43.53614],[1.45877,43.535549],[1.458928,43.535024],[1.459244,43.534528],[1.459688,43.534079],[1.459977,43.533725],[1.46036,43.533222],[1.46055,43.533088],[1.461163,43.532885],[1.461409,43.532693],[1.46098,43.532744],[1.46032,43.532875],[1.458239,43.533615],[1.457918,43.533793],[1.457619,43.533879],[1.457147,43.534049],[1.456751,43.534134],[1.456609,43.534185],[1.4558,43.534535],[1.455464,43.534771],[1.454369,43.535451],[1.453836,43.535828],[1.453483,43.536027],[1.452567,43.536578],[1.451994,43.536781],[1.451619,43.536789],[1.451385,43.536814],[1.451165,43.536939],[1.450742,43.537335],[1.450166,43.537715],[1.449918,43.537811],[1.449485,43.537905],[1.44925,43.537992],[1.44881,43.538211],[1.448341,43.538403],[1.447317,43.538743],[1.446619,43.538948],[1.446401,43.539068],[1.446104,43.539274],[1.445636,43.539478],[1.445148,43.539642],[1.444465,43.539781],[1.443931,43.539966],[1.443649,43.540123],[1.443366,43.540345],[1.44287,43.540637],[1.442664,43.540834],[1.442387,43.541026],[1.442125,43.541287],[1.441971,43.541385],[1.441675,43.541434],[1.44128,43.541442],[1.441044,43.541507],[1.440682,43.541762],[1.440722,43.541916],[1.440609,43.542173],[1.440387,43.542321],[1.43989,43.542459],[1.438962,43.542592],[1.438772,43.542652],[1.438543,43.542809],[1.438384,43.542973],[1.438246,43.5432],[1.438144,43.543445],[1.438192,43.543971],[1.438321,43.544216],[1.438253,43.544308],[1.437935,43.544383],[1.437586,43.544588],[1.436539,43.54495],[1.431788,43.546521],[1.429958,43.547111],[1.428938,43.546057],[1.428771,43.546089],[1.428615,43.546165],[1.428382,43.546136],[1.428,43.546158],[1.427043,43.545871],[1.426932,43.545811],[1.426477,43.545647],[1.426206,43.54558],[1.426,43.545479],[1.425847,43.545449],[1.425227,43.545214],[1.424688,43.544944],[1.424416,43.544767],[1.424204,43.544575],[1.423361,43.543874],[1.422153,43.544498],[1.422128,43.544557],[1.421741,43.544718],[1.419441,43.545622],[1.41861,43.546001],[1.417811,43.546177],[1.417195,43.546367],[1.415717,43.546924],[1.41525,43.547084],[1.414845,43.547322],[1.413991,43.547662],[1.413516,43.54787],[1.413575,43.547976],[1.412623,43.548347],[1.411496,43.548837],[1.410624,43.549233],[1.409829,43.548351],[1.409249,43.547723],[1.408613,43.547107],[1.407402,43.545834],[1.406869,43.545302],[1.406409,43.544728],[1.40544,43.543754],[1.404758,43.544016],[1.403145,43.545192],[1.401654,43.543687],[1.40096,43.544085],[1.400586,43.544435],[1.398243,43.542298],[1.397489,43.541577],[1.397113,43.541672],[1.396531,43.541774],[1.396261,43.541786],[1.395958,43.541748],[1.395452,43.541612],[1.395188,43.541469],[1.394356,43.540798],[1.3941,43.540454],[1.393867,43.540025],[1.393468,43.539156],[1.393311,43.538976],[1.392959,43.538822],[1.392446,43.538642],[1.392248,43.538602],[1.391443,43.538502],[1.391127,43.538432],[1.39087,43.538336],[1.390628,43.538192],[1.390354,43.537994],[1.389762,43.537488],[1.389416,43.537205],[1.389236,43.537237],[1.389107,43.537144],[1.38857,43.536831],[1.388096,43.537118],[1.387711,43.537388],[1.384598,43.53947],[1.383264,43.538649],[1.382405,43.539076],[1.382226,43.539246],[1.38207,43.539632],[1.381849,43.540088],[1.381565,43.540602],[1.38147,43.540592],[1.381348,43.540896],[1.380891,43.541696],[1.380804,43.541803],[1.380328,43.542793],[1.380917,43.543062],[1.37815,43.544568],[1.375906,43.545829],[1.374093,43.54678],[1.368865,43.54942],[1.368322,43.549701],[1.368007,43.549909],[1.368941,43.550279],[1.370076,43.550774],[1.37097,43.551132],[1.371967,43.551505],[1.37317,43.552068],[1.374017,43.552529],[1.375039,43.553174],[1.375234,43.553323],[1.374664,43.553759],[1.373981,43.554347],[1.373612,43.554629],[1.373015,43.555059],[1.372436,43.555385],[1.372035,43.555568],[1.371583,43.555796],[1.370536,43.556416],[1.368484,43.557683],[1.366743,43.558763],[1.366559,43.558774],[1.364724,43.559246],[1.363683,43.559505],[1.363043,43.559634],[1.362291,43.55972],[1.36195,43.559774],[1.361031,43.55998],[1.359621,43.560344],[1.359353,43.560397],[1.3595,43.560725],[1.359694,43.561069],[1.360104,43.561979],[1.360339,43.562424],[1.36059,43.562826],[1.361206,43.563543],[1.361588,43.564056],[1.361642,43.564315],[1.361841,43.565037],[1.361864,43.565282],[1.361728,43.56571],[1.361754,43.565944],[1.362001,43.566544],[1.362102,43.566678],[1.362325,43.566849],[1.363088,43.567322],[1.364923,43.568527],[1.366665,43.570186],[1.367488,43.570768],[1.368512,43.57146],[1.368557,43.571538],[1.368772,43.572734],[1.368812,43.572858],[1.36888,43.573299],[1.368802,43.573453],[1.366122,43.574996],[1.364583,43.575916],[1.363519,43.57651],[1.362395,43.577152],[1.361212,43.577837],[1.359422,43.578834],[1.35898,43.579142],[1.359671,43.579336],[1.361069,43.579853],[1.36209,43.58024],[1.3627,43.580393],[1.363612,43.580562],[1.364051,43.580661],[1.364816,43.580864],[1.366801,43.581363],[1.369378,43.582022],[1.369917,43.582146],[1.370402,43.582281],[1.371414,43.583528],[1.37193,43.584202],[1.372934,43.585549],[1.373552,43.586351],[1.37375,43.58659],[1.373944,43.586768],[1.375268,43.587807],[1.375926,43.588521],[1.376964,43.589843],[1.377019,43.589981],[1.376601,43.589956],[1.375915,43.589939],[1.374335,43.589876],[1.372951,43.589846],[1.37196,43.589813],[1.371254,43.589803],[1.370744,43.58981],[1.370254,43.589845],[1.369763,43.589912],[1.368713,43.590101],[1.368174,43.590178],[1.36783,43.590179],[1.367021,43.590072],[1.366277,43.589942],[1.366228,43.590097],[1.366287,43.590335],[1.366248,43.590418],[1.366095,43.590536],[1.365649,43.590813],[1.365353,43.590898],[1.362959,43.591459],[1.362038,43.591664],[1.36216,43.591857],[1.362421,43.59218],[1.362886,43.592661],[1.364584,43.594344],[1.365313,43.59526],[1.365454,43.595385],[1.365925,43.595723],[1.366548,43.595895],[1.366749,43.595972],[1.366141,43.596306],[1.365723,43.596579],[1.365544,43.596642],[1.36515,43.59672],[1.364876,43.596825],[1.364738,43.59696],[1.364741,43.597163],[1.364664,43.597498],[1.364591,43.597584],[1.364313,43.597512],[1.363945,43.597631],[1.363115,43.598001],[1.362187,43.59837],[1.361911,43.598518],[1.36156,43.598674],[1.360056,43.599109],[1.359299,43.599362],[1.359162,43.599442],[1.358908,43.59967],[1.358697,43.599934],[1.358529,43.600188],[1.358194,43.600594],[1.357591,43.600891],[1.356385,43.601406],[1.354494,43.601868],[1.353806,43.602052],[1.352857,43.602339],[1.352623,43.602317],[1.352358,43.60299],[1.352893,43.603254],[1.352908,43.603426],[1.351736,43.603825],[1.351586,43.603964],[1.351649,43.604058],[1.350329,43.604335],[1.350483,43.60502],[1.350558,43.605283],[1.350671,43.605542],[1.350935,43.606028],[1.351216,43.606217],[1.351537,43.606823],[1.351815,43.607318],[1.352398,43.608254],[1.353249,43.609439],[1.353375,43.60976],[1.353887,43.610565],[1.354042,43.611535],[1.353744,43.611654],[1.354456,43.61327],[1.354592,43.613742],[1.354658,43.614344],[1.3547,43.614534],[1.35477,43.614577],[1.356306,43.614534],[1.356359,43.614631],[1.355881,43.615338],[1.355771,43.615629],[1.35561,43.616187],[1.355515,43.616693],[1.355491,43.616907],[1.355304,43.61787],[1.355248,43.617986],[1.356013,43.619662],[1.356126,43.620008],[1.356355,43.620538],[1.356597,43.620607],[1.357271,43.620409],[1.359194,43.620637],[1.360232,43.621266],[1.361412,43.623418],[1.363317,43.623493],[1.36597,43.624255],[1.366305,43.624928],[1.366449,43.625095],[1.367623,43.626061],[1.368474,43.626726],[1.369656,43.628766],[1.371785,43.627719],[1.373029,43.626917],[1.373495,43.626684],[1.373791,43.626596],[1.374007,43.626559],[1.376828,43.62618],[1.374303,43.620053],[1.374174,43.619818],[1.373998,43.619426],[1.37697,43.61838],[1.380077,43.617521],[1.381478,43.617183],[1.387461,43.615546],[1.389323,43.615361],[1.389582,43.615622],[1.389631,43.61583],[1.389567,43.616022],[1.389364,43.616423],[1.389404,43.616624],[1.389606,43.616763],[1.389934,43.616802],[1.390446,43.616907],[1.391056,43.617107],[1.391356,43.617087],[1.39187,43.616981],[1.392389,43.616924],[1.392654,43.616928],[1.392864,43.617051],[1.392893,43.617239],[1.39286,43.617351],[1.392433,43.617801],[1.392179,43.617981],[1.391945,43.618075],[1.391548,43.618288],[1.39132,43.618545],[1.3913,43.619185],[1.391244,43.619351],[1.391103,43.619563],[1.390893,43.619781],[1.390631,43.620226],[1.390634,43.620361],[1.390755,43.620453],[1.390958,43.620507],[1.392568,43.620829],[1.392737,43.620814],[1.393288,43.620675],[1.394012,43.620471],[1.394488,43.620373],[1.394808,43.620365],[1.394983,43.620399],[1.396189,43.620825],[1.397649,43.620923],[1.398062,43.620968],[1.398571,43.620919],[1.399218,43.620791],[1.399409,43.620774],[1.39976,43.620939],[1.399897,43.621093],[1.399933,43.621193],[1.399991,43.621625],[1.400078,43.622064],[1.400168,43.622614],[1.400307,43.622962],[1.401153,43.622867],[1.401179,43.623497],[1.401187,43.624142],[1.40122,43.624681],[1.401295,43.626305],[1.401377,43.627076],[1.401476,43.62772],[1.401579,43.628145],[1.401839,43.629066],[1.401992,43.629477],[1.40215,43.630002],[1.402486,43.630931],[1.402699,43.631461],[1.402833,43.632028],[1.403001,43.632513],[1.403259,43.633365],[1.403319,43.633686],[1.403461,43.634044],[1.40366,43.635034],[1.403745,43.635344],[1.403789,43.636106],[1.403808,43.636763],[1.403806,43.637216],[1.403756,43.637769],[1.403562,43.638802],[1.403474,43.639338],[1.403256,43.640223],[1.403019,43.640919],[1.402818,43.641404],[1.402669,43.641687],[1.40255,43.642145],[1.402391,43.643073],[1.402257,43.643726],[1.402201,43.64422],[1.402046,43.644715],[1.40192,43.64521],[1.401857,43.645619],[1.401693,43.645993],[1.40155,43.646527],[1.401403,43.647335],[1.401357,43.647765],[1.401285,43.648209],[1.401274,43.648475],[1.401369,43.649033],[1.401439,43.649287],[1.401597,43.649614],[1.401785,43.649892],[1.40208,43.650271],[1.402309,43.650474],[1.40245,43.650528],[1.402866,43.650847],[1.403526,43.65129],[1.404035,43.651758],[1.404822,43.652448],[1.405182,43.652938],[1.405408,43.653187],[1.405661,43.6535],[1.405892,43.65384],[1.406123,43.65413],[1.406428,43.654729],[1.406605,43.655233],[1.406694,43.6556],[1.40666,43.656164],[1.406676,43.656432],[1.406658,43.656782],[1.406588,43.657601],[1.406574,43.658018],[1.406496,43.658881],[1.406403,43.659401],[1.406162,43.660391],[1.405841,43.661366],[1.405266,43.662338],[1.405158,43.662565],[1.404858,43.662968],[1.404699,43.663103],[1.403666,43.664175],[1.403319,43.664525],[1.402961,43.664833],[1.402537,43.665171],[1.402212,43.665399],[1.40136,43.665936],[1.400512,43.66637],[1.400001,43.666679],[1.400629,43.667146],[1.400463,43.667863],[1.402327,43.668469],[1.402452,43.668528],[1.40256,43.668253],[1.402556,43.667971],[1.402628,43.667701],[1.402679,43.667628],[1.402881,43.667574],[1.402976,43.667474],[1.403012,43.667168],[1.403199,43.666705],[1.403453,43.666284],[1.403578,43.665873],[1.40378,43.665531],[1.40396,43.665468],[1.404129,43.665462],[1.404545,43.6654],[1.405056,43.665249],[1.405318,43.665092],[1.405448,43.665098],[1.405762,43.665257],[1.405965,43.665386],[1.406506,43.665446],[1.407252,43.665459],[1.407497,43.665505],[1.408287,43.665604],[1.408588,43.665667],[1.408962,43.665772],[1.409935,43.66616],[1.41048,43.666331],[1.410918,43.666306],[1.411178,43.666332],[1.411436,43.666543],[1.41194,43.66671],[1.412786,43.666606],[1.414152,43.666301],[1.414513,43.666158],[1.415115,43.665863],[1.415409,43.665674],[1.415864,43.665302],[1.416217,43.664899],[1.416381,43.664677],[1.416447,43.664307],[1.416577,43.663409],[1.416526,43.661579],[1.417193,43.660831],[1.417796,43.660914],[1.418155,43.660985],[1.418619,43.661052],[1.419209,43.661159],[1.419655,43.661222],[1.420021,43.661221],[1.420906,43.661174],[1.421311,43.661169],[1.42166,43.66112],[1.423322,43.660217],[1.424317,43.660523],[1.42461,43.660432],[1.425852,43.660078],[1.425995,43.660022],[1.426969,43.659726],[1.427157,43.659608],[1.428084,43.65858],[1.429082,43.658536],[1.42969,43.658537],[1.429864,43.658497],[1.430226,43.658278],[1.430348,43.658181],[1.43077,43.658057],[1.43148,43.657768],[1.431956,43.65734],[1.431594,43.66056],[1.43152,43.661166],[1.431377,43.661729],[1.431323,43.661841],[1.431199,43.662269],[1.430657,43.663902],[1.430033,43.665796],[1.429793,43.666453],[1.430342,43.666598],[1.432133,43.667112],[1.432412,43.666223],[1.43308,43.666398],[1.43449,43.666791],[1.434789,43.666894],[1.435874,43.667186],[1.437598,43.667673],[1.437752,43.667679],[1.438933,43.668139],[1.439064,43.668428],[1.439491,43.668588],[1.43993,43.668714],[1.439982,43.668496],[1.440138,43.66802],[1.440307,43.667407],[1.440356,43.667134],[1.440375,43.666712],[1.440421,43.666503],[1.440251,43.666318],[1.440139,43.665997],[1.440104,43.665758],[1.439368,43.662239],[1.4399,43.662179],[1.439947,43.662088],[1.440211,43.660315],[1.44034,43.659636],[1.44058,43.658826],[1.440756,43.658126],[1.441014,43.655895],[1.441008,43.655409],[1.441036,43.655137],[1.441183,43.654799],[1.44149,43.654356],[1.441952,43.653754],[1.442264,43.65331],[1.442391,43.653093],[1.44255,43.652701],[1.442624,43.652403],[1.442693,43.651691],[1.442685,43.651327],[1.442641,43.651027],[1.442518,43.650738],[1.442494,43.65058],[1.442743,43.648877],[1.442817,43.648532],[1.442922,43.64826],[1.443179,43.647807],[1.443339,43.64801],[1.443496,43.648571],[1.44378,43.649251],[1.444251,43.650052],[1.444307,43.650168],[1.444952,43.651847],[1.445148,43.652438],[1.445444,43.653989],[1.445474,43.654198],[1.446031,43.65372],[1.446508,43.653333],[1.446757,43.653156],[1.447249,43.652999],[1.448409,43.652388],[1.448861,43.652106],[1.449974,43.65152],[1.450356,43.651958],[1.451095,43.651595],[1.452602,43.650824],[1.452974,43.650677],[1.453172,43.65082],[1.453295,43.651046],[1.453993,43.651697],[1.454397,43.651971],[1.45483,43.652231],[1.455032,43.652418],[1.455422,43.652912],[1.45564,43.653227],[1.455844,43.653455],[1.456036,43.653743],[1.456464,43.654706],[1.456665,43.655249],[1.456604,43.655788],[1.456671,43.655884],[1.456982,43.656127],[1.457103,43.65615],[1.457503,43.656474],[1.458264,43.657036],[1.458696,43.657443],[1.458992,43.65766],[1.459253,43.657879],[1.459641,43.658365],[1.45929,43.658515],[1.458832,43.659249],[1.459105,43.659734],[1.458763,43.660045],[1.458759,43.660207],[1.459829,43.660299],[1.459935,43.660809],[1.460388,43.660518],[1.460777,43.660384],[1.461234,43.660353],[1.461853,43.660349],[1.46209,43.660363],[1.462936,43.660315],[1.463218,43.660277],[1.463765,43.660151],[1.464259,43.659993],[1.464791,43.659777],[1.465163,43.659604],[1.465493,43.65939],[1.465634,43.65914],[1.46573,43.658771],[1.465896,43.658529],[1.466223,43.658296],[1.466572,43.658161],[1.466999,43.657847],[1.467256,43.657565],[1.467352,43.657408],[1.467501,43.65705],[1.467571,43.656754],[1.467703,43.656345],[1.467817,43.656132],[1.468319,43.655669],[1.468762,43.655156],[1.468823,43.654918],[1.468901,43.654052],[1.468886,43.653683],[1.46881,43.653276],[1.468789,43.652814],[1.468701,43.652037],[1.468562,43.651881],[1.467833,43.651565],[1.467533,43.651299],[1.467377,43.651049],[1.467359,43.650762],[1.46741,43.65039],[1.467477,43.649624],[1.467533,43.649217],[1.467722,43.648143],[1.467907,43.647591],[1.46817,43.647165],[1.468414,43.647244],[1.469766,43.647571],[1.46986,43.647879],[1.470309,43.647581],[1.470675,43.647358],[1.471257,43.646951],[1.472061,43.646464],[1.472102,43.64641],[1.471345,43.646035],[1.47066,43.645711],[1.471445,43.645424],[1.471425,43.644912],[1.471345,43.64433],[1.471668,43.644174],[1.471874,43.644127],[1.472392,43.644063],[1.472705,43.644062],[1.473293,43.644124],[1.473687,43.644116],[1.473945,43.644038],[1.474174,43.643911],[1.474588,43.643625],[1.475027,43.643183],[1.475471,43.642779],[1.475765,43.642585],[1.476053,43.642335],[1.476265,43.642419],[1.476494,43.642546],[1.476636,43.642567],[1.476918,43.64253],[1.476975,43.642608],[1.476889,43.642772],[1.476987,43.642918],[1.477108,43.642893],[1.477214,43.642789],[1.47736,43.642786],[1.477515,43.642878],[1.477644,43.643087],[1.477811,43.643171],[1.478035,43.643212],[1.478436,43.643231],[1.478627,43.643312],[1.479569,43.643597],[1.4798,43.643707],[1.480098,43.643886],[1.480407,43.644135],[1.480595,43.644218],[1.480868,43.644231],[1.481074,43.644147],[1.481263,43.643956],[1.481488,43.643482],[1.481703,43.643376],[1.482215,43.643161],[1.482373,43.642992],[1.482519,43.64298],[1.482707,43.643089],[1.482773,43.643198],[1.482721,43.643384],[1.482531,43.64351],[1.482438,43.643622],[1.482454,43.643766],[1.482648,43.643891],[1.482956,43.64396],[1.483148,43.644068],[1.48351,43.644171],[1.48362,43.644316],[1.483528,43.644418],[1.483409,43.644461],[1.483189,43.644447],[1.483046,43.644542],[1.48304,43.644643],[1.483158,43.644903],[1.48316,43.645024],[1.483274,43.645101],[1.483478,43.645141],[1.48356,43.64523],[1.483917,43.645405],[1.483986,43.645479],[1.483827,43.645577],[1.483534,43.645536],[1.483399,43.645579],[1.48302,43.645851],[1.48297,43.645964],[1.483046,43.646252],[1.483126,43.646293],[1.483631,43.646403],[1.483836,43.646411],[1.483955,43.646725],[1.484146,43.646797],[1.484478,43.646856],[1.484564,43.646691],[1.484762,43.646639],[1.484972,43.646704],[1.485126,43.647008],[1.485414,43.647103],[1.485592,43.647329],[1.485796,43.647401],[1.486175,43.647316],[1.486421,43.647118],[1.486722,43.647085],[1.48689,43.647014],[1.48712,43.646783],[1.487228,43.646506],[1.487395,43.646505],[1.487539,43.646737],[1.487633,43.646827],[1.487756,43.646828],[1.48798,43.646708],[1.488065,43.64675],[1.488262,43.647016],[1.488398,43.647054],[1.488564,43.647016],[1.488783,43.647068],[1.488927,43.647018],[1.488917,43.646844],[1.489035,43.646739],[1.489186,43.646735],[1.489805,43.646953],[1.490023,43.647086],[1.49008,43.647199],[1.49005,43.647406],[1.490083,43.647625],[1.490171,43.647733],[1.490755,43.647915],[1.490899,43.64794],[1.491081,43.647862],[1.491376,43.647645],[1.491515,43.647577],[1.491715,43.647594],[1.492069,43.64751],[1.492179,43.647449],[1.492231,43.647335],[1.492181,43.647126],[1.492287,43.647061],[1.492527,43.64681],[1.492814,43.646778],[1.492914,43.646667],[1.492868,43.646515],[1.492939,43.646454],[1.493279,43.646428],[1.493571,43.646321],[1.493922,43.646344],[1.494156,43.646433],[1.49425,43.646532],[1.494292,43.646685],[1.494433,43.646925],[1.494586,43.646978],[1.494867,43.646711],[1.494995,43.646693],[1.495173,43.64674],[1.495293,43.646707],[1.495524,43.646516],[1.49575,43.646477],[1.495945,43.646563],[1.496055,43.646694],[1.496186,43.646689],[1.496226,43.646555],[1.496506,43.64645],[1.496716,43.646427],[1.497052,43.64644],[1.497191,43.646398],[1.49736,43.646286],[1.497566,43.646281],[1.498021,43.646357],[1.498519,43.646295],[1.498774,43.646328],[1.499124,43.646266],[1.499236,43.64588],[1.498934,43.645105],[1.498838,43.6449],[1.498474,43.644205],[1.498191,43.643905],[1.498296,43.643617],[1.498391,43.643505],[1.498396,43.643343],[1.498332,43.643216],[1.49778,43.642462],[1.497151,43.641678],[1.496978,43.641437],[1.496836,43.641326],[1.495636,43.640186],[1.495611,43.640149],[1.495044,43.640412],[1.494807,43.640286],[1.494722,43.640128],[1.49428,43.639754],[1.493963,43.63943],[1.493787,43.639149],[1.49359,43.638613],[1.493412,43.638304],[1.492298,43.636518],[1.491143,43.634612],[1.490754,43.63389],[1.490303,43.633449],[1.489904,43.632925],[1.48967,43.632815],[1.489479,43.632659],[1.489156,43.632259],[1.488895,43.63197],[1.488638,43.631754],[1.48719,43.630753],[1.486866,43.630563],[1.486456,43.630351],[1.486016,43.630144],[1.485613,43.629977],[1.485164,43.629828],[1.484201,43.629601],[1.483862,43.629537],[1.482798,43.629371],[1.482584,43.62935],[1.482243,43.629276],[1.48171,43.6291],[1.481387,43.628958],[1.480974,43.62884],[1.479841,43.628353],[1.480395,43.626504],[1.481425,43.623318],[1.481505,43.622953],[1.481893,43.621776],[1.482714,43.619192],[1.483123,43.617881],[1.483215,43.617644],[1.483282,43.61737],[1.483993,43.615171],[1.484144,43.614625],[1.485442,43.610627],[1.485579,43.610172],[1.485734,43.609499],[1.485772,43.609073],[1.485824,43.60758],[1.485822,43.606168],[1.485837,43.604937],[1.485947,43.60465],[1.486045,43.604502],[1.486477,43.604074],[1.4878,43.602869],[1.488467,43.602238],[1.489667,43.60128],[1.490508,43.600488],[1.491562,43.59944],[1.491779,43.598748],[1.491911,43.598075],[1.492722,43.593854],[1.492748,43.593654],[1.493241,43.591947],[1.493845,43.590378],[1.494471,43.58856],[1.494865,43.587621],[1.495034,43.587269],[1.495065,43.586901],[1.49509,43.586231],[1.495379,43.585535],[1.495463,43.585227],[1.49557,43.584994],[1.495832,43.584314],[1.495841,43.584072],[1.495955,43.583636],[1.496418,43.582678],[1.496935,43.581667],[1.498122,43.581418],[1.499401,43.581185],[1.499625,43.581133],[1.499939,43.581103],[1.50059,43.580978],[1.500771,43.580975],[1.501595,43.580834],[1.501766,43.580815],[1.502139,43.580716],[1.502559,43.580628],[1.503046,43.580498],[1.503516,43.580436],[1.503843,43.580316],[1.504688,43.579818]]]}}]}