{"type":"FeatureCollection","features":[{"type":"Feature","properties":{"nom":"Nantes","code":"44109","codeDepartement":"44","siren":"214401093","codeEpci":"244400404","codeRegion":"52","codesPostaux":["44000","44100","44200","44300"],"population":327734},"geometry":{"type":"Polygon","coordinates":[[[-1.478965,47.227928],[-1.478895,47.227801],[-1.480971,47.226329],[-1.483978,47.224784],[-1.490705,47.22292],[-1.493992,47.221993],[-1.498586,47.220269],[-1.503472,47.218882],[-1.506259,47.218359],[-1.511452,47.216843],[-1.513304,47.214427],[-1.516017,47.212322],[-1.522886,47.207538],[-1.525351,47.206276],[-1.530362,47.203686],[-1.52923,47.20262],[-1.528697,47.202235],[-1.528128,47.201623],[-1.527192,47.200763],[-1.52659,47.200279],[-1.527455,47.199927],[-1.528293,47.199622],[-1.528542,47.19942],[-1.52851,47.199318],[-1.528536,47.198959],[-1.52863,47.198741],[-1.528928,47.198548],[-1.529947,47.19807],[-1.530546,47.197748],[-1.530714,47.197626],[-1.530811,47.197505],[-1.530917,47.197286],[-1.531008,47.19699],[-1.530901,47.196913],[-1.530132,47.196704],[-1.52963,47.196584],[-1.528002,47.196248],[-1.527644,47.196205],[-1.527372,47.196214],[-1.525692,47.196406],[-1.524647,47.19651],[-1.524659,47.196389],[-1.525017,47.195675],[-1.525416,47.19485],[-1.525459,47.194721],[-1.525503,47.194247],[-1.525388,47.193672],[-1.525426,47.192995],[-1.525504,47.191947],[-1.524442,47.191583],[-1.524036,47.191473],[-1.523141,47.191167],[-1.521655,47.190672],[-1.519851,47.190065],[-1.519431,47.189939],[-1.518754,47.189777],[-1.518335,47.18971],[-1.517895,47.18967],[-1.51283,47.189332],[-1.512894,47.188969],[-1.513003,47.188644],[-1.512993,47.188515],[-1.51274,47.188193],[-1.512654,47.18778],[-1.512358,47.187771],[-1.512408,47.18753],[-1.512187,47.187429],[-1.512052,47.187448],[-1.511974,47.187623],[-1.511532,47.187574],[-1.511259,47.187651],[-1.511269,47.187544],[-1.511595,47.187028],[-1.511824,47.18717],[-1.512296,47.187381],[-1.51246,47.187372],[-1.512602,47.187164],[-1.51287,47.186967],[-1.513287,47.187242],[-1.513894,47.187618],[-1.514056,47.187704],[-1.516177,47.186557],[-1.516862,47.185959],[-1.516539,47.185756],[-1.517069,47.185385],[-1.517273,47.185052],[-1.517453,47.184946],[-1.517515,47.18479],[-1.517409,47.184403],[-1.517375,47.184155],[-1.517288,47.184054],[-1.517275,47.183837],[-1.517329,47.183662],[-1.517404,47.183596],[-1.517041,47.183494],[-1.517021,47.183416],[-1.517466,47.182761],[-1.517718,47.182365],[-1.517925,47.181987],[-1.517902,47.181793],[-1.517726,47.181667],[-1.517514,47.181575],[-1.517592,47.181479],[-1.518169,47.180628],[-1.52188,47.181112],[-1.52529,47.181678],[-1.526945,47.181935],[-1.527697,47.182082],[-1.528875,47.182358],[-1.529534,47.182541],[-1.530247,47.182761],[-1.531306,47.183146],[-1.531746,47.183342],[-1.532532,47.183875],[-1.533185,47.184485],[-1.533922,47.185196],[-1.534282,47.185605],[-1.53481,47.186263],[-1.535103,47.186919],[-1.535477,47.187929],[-1.535591,47.188351],[-1.536067,47.189171],[-1.536311,47.18952],[-1.536554,47.189818],[-1.537973,47.191146],[-1.53878,47.191747],[-1.53904,47.191895],[-1.540192,47.192479],[-1.540896,47.192781],[-1.541806,47.19324],[-1.542076,47.193431],[-1.542692,47.19395],[-1.543253,47.194397],[-1.543571,47.1947],[-1.54415,47.195076],[-1.544373,47.195181],[-1.544724,47.194687],[-1.545464,47.194536],[-1.54694,47.19419],[-1.547354,47.194636],[-1.547645,47.194926],[-1.547968,47.195301],[-1.548406,47.195419],[-1.5485,47.195877],[-1.54876,47.196679],[-1.54881,47.196792],[-1.54804,47.197385],[-1.548352,47.198002],[-1.549763,47.198017],[-1.556723,47.198066],[-1.558395,47.198037],[-1.561757,47.198016],[-1.567339,47.198007],[-1.571059,47.198029],[-1.573143,47.197922],[-1.578219,47.197637],[-1.578517,47.197573],[-1.579217,47.197369],[-1.580413,47.196948],[-1.581395,47.196646],[-1.582132,47.196386],[-1.582737,47.196186],[-1.586719,47.195017],[-1.59446,47.192708],[-1.596216,47.192473],[-1.596032,47.191662],[-1.59537,47.191502],[-1.595828,47.190318],[-1.599057,47.188502],[-1.601645,47.18622],[-1.604388,47.185219],[-1.604733,47.185124],[-1.607592,47.184526],[-1.610244,47.184901],[-1.610786,47.184973],[-1.61297,47.18539],[-1.615102,47.185991],[-1.61855,47.186936],[-1.620482,47.186999],[-1.621116,47.187419],[-1.621346,47.187541],[-1.621593,47.187585],[-1.622094,47.18756],[-1.622651,47.187446],[-1.622812,47.187397],[-1.623496,47.187516],[-1.623929,47.187678],[-1.624329,47.187854],[-1.624718,47.187962],[-1.624949,47.187952],[-1.62513,47.188059],[-1.625628,47.188264],[-1.62616,47.188302],[-1.626613,47.188391],[-1.627299,47.18862],[-1.628074,47.188827],[-1.628816,47.188924],[-1.62925,47.18894],[-1.629576,47.188867],[-1.630055,47.188929],[-1.63611,47.189388],[-1.636806,47.189694],[-1.637154,47.189782],[-1.637347,47.189764],[-1.637712,47.189663],[-1.637997,47.189662],[-1.63878,47.189867],[-1.639164,47.189901],[-1.639776,47.189913],[-1.64018,47.190115],[-1.640616,47.190189],[-1.640779,47.19025],[-1.641041,47.190459],[-1.641601,47.190838],[-1.641774,47.191179],[-1.640746,47.191268],[-1.638285,47.191982],[-1.63789,47.192188],[-1.636616,47.192619],[-1.635621,47.192605],[-1.632432,47.192966],[-1.628533,47.193091],[-1.626762,47.193012],[-1.622089,47.193298],[-1.619668,47.193264],[-1.619026,47.193227],[-1.619092,47.194032],[-1.619096,47.194291],[-1.619028,47.194896],[-1.619047,47.194994],[-1.618837,47.195312],[-1.618672,47.195697],[-1.618524,47.195963],[-1.618087,47.196389],[-1.617948,47.196548],[-1.617743,47.196698],[-1.618063,47.197262],[-1.618095,47.197421],[-1.617938,47.197613],[-1.617893,47.197735],[-1.617821,47.198189],[-1.617752,47.198437],[-1.618171,47.198743],[-1.618112,47.198914],[-1.617688,47.199953],[-1.61677,47.200003],[-1.616764,47.200233],[-1.616851,47.200951],[-1.616538,47.202377],[-1.616473,47.202583],[-1.614811,47.204363],[-1.614816,47.20459],[-1.614748,47.204968],[-1.613041,47.206935],[-1.612651,47.207396],[-1.61258,47.207504],[-1.612336,47.20772],[-1.612414,47.207792],[-1.611549,47.208588],[-1.611206,47.208925],[-1.610328,47.209997],[-1.609832,47.210553],[-1.609699,47.210672],[-1.609356,47.211231],[-1.608949,47.211777],[-1.608181,47.212848],[-1.607911,47.213271],[-1.607612,47.213699],[-1.607242,47.214038],[-1.606247,47.214881],[-1.605846,47.215235],[-1.605297,47.215776],[-1.604964,47.216204],[-1.604799,47.21647],[-1.604016,47.217987],[-1.603875,47.218285],[-1.603217,47.220433],[-1.603411,47.220464],[-1.60368,47.22057],[-1.603871,47.220714],[-1.604023,47.220992],[-1.604017,47.221181],[-1.603797,47.221563],[-1.603631,47.221679],[-1.603459,47.221742],[-1.603173,47.221794],[-1.602911,47.221793],[-1.602766,47.222638],[-1.602758,47.223061],[-1.602811,47.223364],[-1.603108,47.224248],[-1.60312,47.224591],[-1.60302,47.22487],[-1.602858,47.225147],[-1.602673,47.225363],[-1.601555,47.226233],[-1.600768,47.226798],[-1.599704,47.227522],[-1.599271,47.227858],[-1.598837,47.228235],[-1.59819,47.22882],[-1.597923,47.229028],[-1.597635,47.22919],[-1.596162,47.229897],[-1.594367,47.230719],[-1.592399,47.231715],[-1.592018,47.231298],[-1.590587,47.232077],[-1.590204,47.231849],[-1.589917,47.232071],[-1.589051,47.232707],[-1.588416,47.232252],[-1.58789,47.231944],[-1.58732,47.232441],[-1.586757,47.232919],[-1.585479,47.23397],[-1.584592,47.234847],[-1.583804,47.235854],[-1.586012,47.237466],[-1.586209,47.237617],[-1.586656,47.237874],[-1.589437,47.239258],[-1.588884,47.239995],[-1.588648,47.240291],[-1.588196,47.240784],[-1.587816,47.241123],[-1.587133,47.241556],[-1.586773,47.241755],[-1.586468,47.242047],[-1.586192,47.242506],[-1.586018,47.242646],[-1.58563,47.242787],[-1.585444,47.242943],[-1.585334,47.242926],[-1.585199,47.242818],[-1.584902,47.242948],[-1.584513,47.243027],[-1.583361,47.243409],[-1.583108,47.243578],[-1.582859,47.243621],[-1.582609,47.243717],[-1.58245,47.243869],[-1.582132,47.243896],[-1.58194,47.244158],[-1.5815,47.244327],[-1.581291,47.244328],[-1.580775,47.244534],[-1.580569,47.244588],[-1.580414,47.244764],[-1.580245,47.244873],[-1.579827,47.245033],[-1.579694,47.245047],[-1.579418,47.245183],[-1.579299,47.245203],[-1.579093,47.245344],[-1.578585,47.245773],[-1.578139,47.246048],[-1.578019,47.246158],[-1.5779,47.246344],[-1.577848,47.246535],[-1.577906,47.246765],[-1.578025,47.246967],[-1.578007,47.247289],[-1.577626,47.247138],[-1.577406,47.247161],[-1.577448,47.247313],[-1.577427,47.247656],[-1.577285,47.248219],[-1.57707,47.249201],[-1.576806,47.250348],[-1.576371,47.252303],[-1.576245,47.253095],[-1.576257,47.253276],[-1.576412,47.253974],[-1.576515,47.254241],[-1.576959,47.25477],[-1.577735,47.255653],[-1.578387,47.256407],[-1.579731,47.257979],[-1.580781,47.259142],[-1.581711,47.260134],[-1.582836,47.261509],[-1.58305,47.2619],[-1.583365,47.26226],[-1.58401,47.263034],[-1.584429,47.26364],[-1.58459,47.263841],[-1.585216,47.264539],[-1.589343,47.269126],[-1.589538,47.269051],[-1.590663,47.270379],[-1.591409,47.271235],[-1.59174,47.271593],[-1.592486,47.272437],[-1.593397,47.273444],[-1.593282,47.273488],[-1.59288,47.273698],[-1.59181,47.27416],[-1.591201,47.274302],[-1.590156,47.274669],[-1.589852,47.274749],[-1.589548,47.274786],[-1.589145,47.27479],[-1.588632,47.274727],[-1.587637,47.274537],[-1.587098,47.274385],[-1.586966,47.274277],[-1.586558,47.274025],[-1.586182,47.27384],[-1.58557,47.273463],[-1.584976,47.273265],[-1.584721,47.273331],[-1.584634,47.272813],[-1.584212,47.27295],[-1.584007,47.272975],[-1.583665,47.272969],[-1.58314,47.273103],[-1.582701,47.273121],[-1.582045,47.273097],[-1.58185,47.273049],[-1.58134,47.272778],[-1.580928,47.2727],[-1.580638,47.272622],[-1.580129,47.272567],[-1.579875,47.272563],[-1.579502,47.272505],[-1.578932,47.27229],[-1.578494,47.272234],[-1.578191,47.272107],[-1.578034,47.272135],[-1.577752,47.272127],[-1.577335,47.271974],[-1.576775,47.271902],[-1.576171,47.271959],[-1.574907,47.271959],[-1.574273,47.271989],[-1.573918,47.27203],[-1.573486,47.271997],[-1.573251,47.272011],[-1.572686,47.271904],[-1.571988,47.271867],[-1.57172,47.271796],[-1.571452,47.271799],[-1.5698,47.271888],[-1.56924,47.271957],[-1.568706,47.271883],[-1.567778,47.271558],[-1.567548,47.271522],[-1.567585,47.271716],[-1.567504,47.271768],[-1.566974,47.271582],[-1.5669,47.27152],[-1.566997,47.271347],[-1.566564,47.271348],[-1.566569,47.271158],[-1.56629,47.27092],[-1.565913,47.27066],[-1.565274,47.270269],[-1.56501,47.270152],[-1.564728,47.269965],[-1.564439,47.26967],[-1.564329,47.269624],[-1.563842,47.269644],[-1.563537,47.269616],[-1.562974,47.269686],[-1.562727,47.269871],[-1.562357,47.269926],[-1.561815,47.269812],[-1.561317,47.269805],[-1.56064,47.269832],[-1.560187,47.269957],[-1.559925,47.269995],[-1.559294,47.27012],[-1.558978,47.269749],[-1.558843,47.26966],[-1.55858,47.269575],[-1.558284,47.26917],[-1.558232,47.268999],[-1.558141,47.26846],[-1.558167,47.268127],[-1.558149,47.267952],[-1.558371,47.267652],[-1.558563,47.267467],[-1.558715,47.267275],[-1.558599,47.267108],[-1.558404,47.267102],[-1.558348,47.267005],[-1.558456,47.266861],[-1.558737,47.266764],[-1.558801,47.2667],[-1.558895,47.26644],[-1.558894,47.266135],[-1.558719,47.266022],[-1.558395,47.26589],[-1.558353,47.265825],[-1.558582,47.265694],[-1.558506,47.265474],[-1.558492,47.265308],[-1.558341,47.265152],[-1.557924,47.26514],[-1.557736,47.265007],[-1.557501,47.264949],[-1.557396,47.264757],[-1.557312,47.264719],[-1.556951,47.26469],[-1.556639,47.264501],[-1.556223,47.264492],[-1.555857,47.264332],[-1.555448,47.264318],[-1.555319,47.264266],[-1.555119,47.264115],[-1.554996,47.263908],[-1.554953,47.263705],[-1.554786,47.263439],[-1.554636,47.262875],[-1.554733,47.262418],[-1.554842,47.262227],[-1.554836,47.261979],[-1.554951,47.261523],[-1.554862,47.261336],[-1.55451,47.261061],[-1.554384,47.26093],[-1.554194,47.260356],[-1.553283,47.258584],[-1.552659,47.258439],[-1.551232,47.257593],[-1.551114,47.257592],[-1.550902,47.257696],[-1.550717,47.257625],[-1.550654,47.257494],[-1.550766,47.257254],[-1.550861,47.257182],[-1.55088,47.257004],[-1.550779,47.25678],[-1.550653,47.256681],[-1.550328,47.256568],[-1.549743,47.256593],[-1.549574,47.256569],[-1.549261,47.256329],[-1.549031,47.256269],[-1.548595,47.256313],[-1.548226,47.256438],[-1.548043,47.256456],[-1.547432,47.256359],[-1.546797,47.256482],[-1.546342,47.2564],[-1.545387,47.256376],[-1.544995,47.256246],[-1.54443,47.2561],[-1.544174,47.25599],[-1.543828,47.255726],[-1.543194,47.25544],[-1.543079,47.255343],[-1.542398,47.255137],[-1.541613,47.254957],[-1.541291,47.254953],[-1.540681,47.25502],[-1.540135,47.255018],[-1.539106,47.254903],[-1.538883,47.255629],[-1.538486,47.256369],[-1.537285,47.257488],[-1.536331,47.25858],[-1.536057,47.259392],[-1.537241,47.262169],[-1.53776,47.265755],[-1.536078,47.268273],[-1.5295,47.27545],[-1.528843,47.276176],[-1.528426,47.276561],[-1.527334,47.277536],[-1.527062,47.278375],[-1.526837,47.278959],[-1.526687,47.279549],[-1.526577,47.280062],[-1.526505,47.280521],[-1.526497,47.281025],[-1.526535,47.281433],[-1.526547,47.2819],[-1.526616,47.282552],[-1.526686,47.282964],[-1.52686,47.283602],[-1.52712,47.284472],[-1.52736,47.285161],[-1.527644,47.285719],[-1.527818,47.285937],[-1.528009,47.286128],[-1.530052,47.28828],[-1.532739,47.291125],[-1.533408,47.291488],[-1.533421,47.293489],[-1.532946,47.294391],[-1.532423,47.295023],[-1.530659,47.294872],[-1.527218,47.29459],[-1.526356,47.294402],[-1.526006,47.294338],[-1.525694,47.294353],[-1.525454,47.294427],[-1.525176,47.294562],[-1.524801,47.294689],[-1.524506,47.294847],[-1.524091,47.295001],[-1.523304,47.295544],[-1.522915,47.295674],[-1.522409,47.295774],[-1.522023,47.295761],[-1.521796,47.295786],[-1.520934,47.295839],[-1.520009,47.295838],[-1.519733,47.295773],[-1.519268,47.295465],[-1.518707,47.295212],[-1.51725,47.294782],[-1.516219,47.294353],[-1.515817,47.294241],[-1.515347,47.294186],[-1.514799,47.294143],[-1.514281,47.294121],[-1.51413,47.294177],[-1.513509,47.294294],[-1.513057,47.294411],[-1.5127,47.294464],[-1.512335,47.294558],[-1.511528,47.294874],[-1.511094,47.29507],[-1.509708,47.29561],[-1.508629,47.293989],[-1.508511,47.293765],[-1.508445,47.293508],[-1.508404,47.292715],[-1.508268,47.292019],[-1.508349,47.291486],[-1.508261,47.290566],[-1.508205,47.29039],[-1.508151,47.290002],[-1.508165,47.289863],[-1.50827,47.289635],[-1.508271,47.289411],[-1.508108,47.288472],[-1.508175,47.288127],[-1.508573,47.287342],[-1.508397,47.287277],[-1.508546,47.286874],[-1.508612,47.286776],[-1.508737,47.286426],[-1.509097,47.285715],[-1.509484,47.28509],[-1.51032,47.284519],[-1.510097,47.284341],[-1.510525,47.2831],[-1.51003,47.281624],[-1.509324,47.280641],[-1.508748,47.279748],[-1.508567,47.279695],[-1.508797,47.279342],[-1.508958,47.27896],[-1.509391,47.277514],[-1.509545,47.276956],[-1.509611,47.276386],[-1.509611,47.276003],[-1.50964,47.274976],[-1.507872,47.274736],[-1.506812,47.274587],[-1.505654,47.274433],[-1.50531,47.274379],[-1.504813,47.274245],[-1.504197,47.274036],[-1.503937,47.273927],[-1.502817,47.273492],[-1.50212,47.273194],[-1.499428,47.272162],[-1.499939,47.271532],[-1.501024,47.270239],[-1.501396,47.269744],[-1.501585,47.269456],[-1.502045,47.268554],[-1.502113,47.268402],[-1.50284,47.266945],[-1.503021,47.266673],[-1.503258,47.266468],[-1.505874,47.264689],[-1.506627,47.264166],[-1.506995,47.263831],[-1.507416,47.263206],[-1.508194,47.261996],[-1.50604,47.261459],[-1.506732,47.26024],[-1.506239,47.259672],[-1.506075,47.259436],[-1.5062,47.259375],[-1.506213,47.259266],[-1.506328,47.259194],[-1.506028,47.258822],[-1.505648,47.25796],[-1.505107,47.25819],[-1.505224,47.258314],[-1.504411,47.25864],[-1.502079,47.259479],[-1.501797,47.25945],[-1.500701,47.259838],[-1.499191,47.260488],[-1.498189,47.260936],[-1.495815,47.26201],[-1.495152,47.262273],[-1.494887,47.262058],[-1.49458,47.261729],[-1.494299,47.261348],[-1.494147,47.260848],[-1.49413,47.260173],[-1.494235,47.259732],[-1.494265,47.259191],[-1.49424,47.259133],[-1.494325,47.258516],[-1.494749,47.258494],[-1.494718,47.258397],[-1.494831,47.258147],[-1.494884,47.25795],[-1.496177,47.256952],[-1.496406,47.256992],[-1.496421,47.25689],[-1.496526,47.256766],[-1.496525,47.2565],[-1.496619,47.256412],[-1.496604,47.256186],[-1.496663,47.256005],[-1.49688,47.255586],[-1.496942,47.255376],[-1.496933,47.25522],[-1.496833,47.25491],[-1.497054,47.254774],[-1.497011,47.254372],[-1.496847,47.253917],[-1.496847,47.253831],[-1.496746,47.25355],[-1.496615,47.253404],[-1.496518,47.253081],[-1.496508,47.25282],[-1.496274,47.252398],[-1.496122,47.252219],[-1.496098,47.252031],[-1.496015,47.251799],[-1.495933,47.251682],[-1.496002,47.251559],[-1.495892,47.251429],[-1.495842,47.251262],[-1.495645,47.251053],[-1.495521,47.250839],[-1.49538,47.250695],[-1.495068,47.250616],[-1.494317,47.250531],[-1.493819,47.250506],[-1.493446,47.250426],[-1.493252,47.250172],[-1.492966,47.249662],[-1.492811,47.249427],[-1.492598,47.24916],[-1.492388,47.248757],[-1.492446,47.24864],[-1.492668,47.248378],[-1.492587,47.248203],[-1.492067,47.247701],[-1.491735,47.247484],[-1.491604,47.247355],[-1.491426,47.247364],[-1.491111,47.247056],[-1.490815,47.24666],[-1.490404,47.246266],[-1.490183,47.24611],[-1.489719,47.245874],[-1.489423,47.245678],[-1.489095,47.245429],[-1.488658,47.245062],[-1.488281,47.244909],[-1.487045,47.244506],[-1.48683,47.244373],[-1.486658,47.244218],[-1.486438,47.244092],[-1.486503,47.243587],[-1.486487,47.243343],[-1.486527,47.243062],[-1.486475,47.242775],[-1.486285,47.242325],[-1.486223,47.242003],[-1.486437,47.241465],[-1.48661,47.24111],[-1.487178,47.240668],[-1.486668,47.238581],[-1.487214,47.237764],[-1.487318,47.237409],[-1.487266,47.237308],[-1.486758,47.236889],[-1.486493,47.236409],[-1.486396,47.236275],[-1.48605,47.236145],[-1.48596,47.23585],[-1.486018,47.235527],[-1.485903,47.23523],[-1.485834,47.234935],[-1.485854,47.234499],[-1.485813,47.234308],[-1.484656,47.233088],[-1.479185,47.228145],[-1.478965,47.227928]]]}}]}