{"type":"FeatureCollection","features":[{"type":"Feature","properties":{"nom":"Nice","code":"06088","codeDepartement":"06","siren":"210600888","codeEpci":"200030195","codeRegion":"93","codesPostaux":["06000","06100","06200","06300"],"population":357737},"geometry":{"type":"Polygon","coordinates":[[[7.321258,43.723683],[7.321325,43.723748],[7.321594,43.723764],[7.321805,43.723832],[7.322016,43.723853],[7.322631,43.723847],[7.322861,43.723757],[7.323186,43.723754],[7.323339,43.72364],[7.323476,43.72335],[7.323343,43.723066],[7.323056,43.723102],[7.322723,43.72309],[7.322284,43.72303],[7.32172,43.722983],[7.321606,43.722937],[7.321328,43.72294],[7.320907,43.722881],[7.320383,43.722782],[7.320191,43.722729],[7.3196,43.722504],[7.318647,43.722024],[7.318365,43.721918],[7.318193,43.721783],[7.317843,43.721556],[7.31789,43.721829],[7.317703,43.721755],[7.317306,43.721482],[7.317078,43.721444],[7.316094,43.721146],[7.316017,43.721067],[7.315862,43.720585],[7.315805,43.720497],[7.31563,43.720482],[7.314832,43.72061],[7.314681,43.720597],[7.314652,43.720524],[7.314666,43.720135],[7.314835,43.719858],[7.314897,43.719621],[7.314876,43.719427],[7.314652,43.719291],[7.314347,43.718779],[7.314219,43.718792],[7.314315,43.718991],[7.314317,43.719207],[7.314279,43.719366],[7.314176,43.719361],[7.314104,43.719102],[7.313933,43.718964],[7.313498,43.718452],[7.313052,43.718177],[7.312913,43.718068],[7.312581,43.717308],[7.312654,43.717131],[7.312891,43.71692],[7.313296,43.716739],[7.313263,43.716694],[7.312913,43.716726],[7.312664,43.716775],[7.312871,43.716447],[7.313062,43.716234],[7.313225,43.716108],[7.313629,43.715855],[7.313778,43.715651],[7.313776,43.715356],[7.313638,43.71517],[7.313404,43.714933],[7.313028,43.714706],[7.312536,43.714534],[7.312177,43.714495],[7.311563,43.714493],[7.310397,43.714252],[7.309724,43.714068],[7.309555,43.713948],[7.309414,43.713637],[7.3093,43.713525],[7.309011,43.713325],[7.308505,43.713031],[7.307768,43.712732],[7.307473,43.712587],[7.307093,43.712348],[7.30687,43.712182],[7.306534,43.711828],[7.30643,43.711629],[7.306507,43.711399],[7.30635,43.711196],[7.306165,43.711025],[7.305384,43.710822],[7.30531,43.710776],[7.305343,43.710645],[7.306038,43.710229],[7.306161,43.710218],[7.306723,43.710246],[7.30672,43.710082],[7.305959,43.70934],[7.305685,43.709199],[7.305085,43.709127],[7.304668,43.709194],[7.304476,43.709146],[7.304239,43.708981],[7.303732,43.708673],[7.303269,43.708251],[7.302909,43.708125],[7.302341,43.70799],[7.302191,43.707931],[7.301918,43.707683],[7.301808,43.70746],[7.301758,43.707243],[7.301672,43.707106],[7.301038,43.70639],[7.30081,43.706217],[7.3008,43.70613],[7.300922,43.705993],[7.301024,43.705973],[7.301509,43.706096],[7.30157,43.705937],[7.301542,43.70556],[7.301283,43.704776],[7.301166,43.704322],[7.301114,43.703865],[7.300963,43.703405],[7.300609,43.702631],[7.300413,43.702407],[7.300235,43.70177],[7.300305,43.701731],[7.300566,43.701714],[7.300599,43.70136],[7.300848,43.701216],[7.300582,43.701184],[7.300628,43.700957],[7.300961,43.700817],[7.301416,43.70046],[7.301457,43.700308],[7.301562,43.700162],[7.301743,43.700057],[7.301772,43.699903],[7.301854,43.699781],[7.302039,43.699673],[7.302233,43.699451],[7.302484,43.699218],[7.302607,43.699035],[7.302523,43.698842],[7.302576,43.698757],[7.302836,43.698767],[7.303036,43.698601],[7.303264,43.697967],[7.303364,43.697768],[7.303448,43.697493],[7.303553,43.697417],[7.303823,43.697317],[7.304148,43.696736],[7.303995,43.696256],[7.303999,43.696162],[7.304508,43.695777],[7.304673,43.695613],[7.304925,43.695459],[7.305081,43.695511],[7.305533,43.694578],[7.305717,43.694382],[7.306444,43.693853],[7.306761,43.693534],[7.307501,43.693012],[7.307753,43.692854],[7.308027,43.692848],[7.308492,43.692913],[7.308732,43.69292],[7.30886,43.693005],[7.308869,43.692794],[7.308947,43.692661],[7.309008,43.692442],[7.308924,43.692374],[7.308975,43.692291],[7.308984,43.691912],[7.308958,43.691751],[7.308868,43.691664],[7.308898,43.691564],[7.30879,43.691496],[7.308826,43.691359],[7.30843,43.691114],[7.30814,43.69081],[7.30817,43.690655],[7.308358,43.690549],[7.308373,43.690458],[7.30828,43.690236],[7.308256,43.690075],[7.308339,43.690037],[7.308367,43.689909],[7.308317,43.68982],[7.308388,43.689682],[7.308152,43.689702],[7.308075,43.689343],[7.308065,43.689055],[7.308159,43.688917],[7.308183,43.688717],[7.308109,43.688648],[7.308058,43.688416],[7.307802,43.6883],[7.307711,43.688213],[7.307749,43.68796],[7.307675,43.687821],[7.307712,43.6877],[7.307647,43.687495],[7.307507,43.687455],[7.307427,43.687368],[7.307093,43.687192],[7.3069,43.686993],[7.306891,43.686885],[7.306607,43.686545],[7.306493,43.686486],[7.306385,43.686292],[7.306131,43.686158],[7.306186,43.686039],[7.306056,43.68578],[7.305944,43.68577],[7.305818,43.685612],[7.305667,43.685563],[7.30547,43.685584],[7.305304,43.68556],[7.305263,43.685473],[7.305023,43.685415],[7.304815,43.685293],[7.304385,43.685196],[7.304248,43.685021],[7.30409,43.685066],[7.303999,43.68526],[7.303999,43.685486],[7.30392,43.685607],[7.303681,43.685734],[7.303296,43.685901],[7.302984,43.685885],[7.302767,43.685798],[7.302507,43.685983],[7.302311,43.686012],[7.302134,43.685964],[7.301856,43.686072],[7.301742,43.686043],[7.30157,43.686114],[7.301476,43.685978],[7.301378,43.685923],[7.301052,43.686071],[7.300974,43.686062],[7.300806,43.686189],[7.30068,43.686115],[7.300412,43.686187],[7.300141,43.686215],[7.300117,43.686392],[7.29978,43.686204],[7.299339,43.686175],[7.299223,43.686063],[7.299078,43.68614],[7.299203,43.686225],[7.299129,43.686299],[7.298891,43.686283],[7.298651,43.686301],[7.29854,43.686234],[7.298296,43.686294],[7.298119,43.686244],[7.297998,43.68613],[7.297764,43.686156],[7.297632,43.686251],[7.297536,43.686435],[7.297523,43.686607],[7.297315,43.686455],[7.297199,43.686467],[7.297155,43.686315],[7.296982,43.686325],[7.296956,43.686422],[7.296352,43.686204],[7.296327,43.686105],[7.296112,43.685924],[7.296082,43.685763],[7.295924,43.685792],[7.295797,43.685882],[7.295677,43.68586],[7.295637,43.685636],[7.295388,43.685598],[7.295347,43.685783],[7.295056,43.686146],[7.29482,43.686302],[7.29453,43.686251],[7.294288,43.686326],[7.294184,43.686433],[7.293999,43.686452],[7.293769,43.686533],[7.293812,43.686673],[7.293718,43.68682],[7.293824,43.686933],[7.293753,43.687017],[7.293824,43.68726],[7.293914,43.687416],[7.293506,43.687333],[7.293517,43.68748],[7.293721,43.687542],[7.293919,43.687669],[7.294053,43.687853],[7.294074,43.687996],[7.294248,43.688232],[7.294202,43.688405],[7.294305,43.688545],[7.294214,43.688567],[7.294231,43.688738],[7.29433,43.688873],[7.294232,43.688981],[7.294333,43.689193],[7.294302,43.689375],[7.29436,43.689444],[7.294286,43.689736],[7.294106,43.689815],[7.293949,43.689754],[7.293939,43.689957],[7.293754,43.689966],[7.293683,43.68986],[7.29355,43.689873],[7.293594,43.689996],[7.293545,43.690162],[7.293613,43.690213],[7.29368,43.690635],[7.293575,43.690836],[7.293421,43.690831],[7.29308,43.690924],[7.29292,43.691106],[7.292779,43.691084],[7.292483,43.691245],[7.292368,43.691194],[7.29227,43.691329],[7.291973,43.691395],[7.29177,43.691507],[7.291404,43.691418],[7.291253,43.691569],[7.291058,43.691611],[7.290927,43.691695],[7.291011,43.691813],[7.290843,43.691863],[7.290755,43.692048],[7.290527,43.692236],[7.290299,43.69226],[7.290304,43.692119],[7.290155,43.692089],[7.290086,43.691902],[7.289883,43.691766],[7.289715,43.691587],[7.289684,43.691505],[7.289406,43.691284],[7.289288,43.691361],[7.28924,43.691467],[7.28943,43.691601],[7.288955,43.691728],[7.28879,43.691827],[7.288962,43.691867],[7.289609,43.691748],[7.289859,43.691985],[7.289758,43.692059],[7.28976,43.692239],[7.289943,43.692414],[7.289515,43.692856],[7.289478,43.692939],[7.289189,43.693022],[7.289086,43.692861],[7.288872,43.692292],[7.288875,43.692149],[7.288639,43.692203],[7.288426,43.691987],[7.288185,43.692051],[7.288693,43.693337],[7.285838,43.693926],[7.285749,43.693689],[7.285472,43.693774],[7.285425,43.69364],[7.285298,43.693686],[7.285659,43.694613],[7.285473,43.694683],[7.284996,43.695239],[7.285013,43.695409],[7.285373,43.695573],[7.285395,43.695512],[7.285671,43.695584],[7.285885,43.696993],[7.285903,43.696992],[7.28608,43.697996],[7.285406,43.698051],[7.285318,43.698073],[7.284174,43.698168],[7.283973,43.697018],[7.283982,43.696944],[7.284383,43.696898],[7.284232,43.696001],[7.283768,43.696041],[7.283698,43.695642],[7.284404,43.69558],[7.284357,43.695332],[7.283712,43.69524],[7.283532,43.695129],[7.283428,43.69492],[7.283286,43.694505],[7.284753,43.692931],[7.284988,43.693048],[7.285195,43.692987],[7.285082,43.692859],[7.285203,43.692801],[7.285125,43.69272],[7.286137,43.692214],[7.286374,43.692082],[7.286853,43.691708],[7.288112,43.690699],[7.288403,43.690554],[7.288305,43.690404],[7.2881,43.690417],[7.287614,43.690765],[7.287456,43.690938],[7.287027,43.691275],[7.286932,43.691405],[7.286635,43.691586],[7.286484,43.691733],[7.285808,43.692149],[7.285739,43.692223],[7.285462,43.692349],[7.285301,43.692356],[7.284901,43.692486],[7.284856,43.69255],[7.284614,43.692623],[7.284161,43.692717],[7.283766,43.692751],[7.283361,43.692807],[7.283313,43.692835],[7.282759,43.692939],[7.282704,43.693],[7.282444,43.69301],[7.282326,43.69309],[7.28188,43.69311],[7.281765,43.69305],[7.281539,43.693021],[7.281467,43.693066],[7.281355,43.692887],[7.28122,43.692901],[7.281085,43.692774],[7.280941,43.692835],[7.280814,43.69295],[7.280457,43.692996],[7.2803,43.693047],[7.280161,43.693021],[7.28002,43.693146],[7.279956,43.693101],[7.279742,43.693229],[7.279421,43.693305],[7.279089,43.693297],[7.278925,43.693324],[7.278808,43.69341],[7.278688,43.693415],[7.278652,43.69356],[7.278761,43.693564],[7.278722,43.693702],[7.278785,43.693816],[7.278882,43.693858],[7.278723,43.693996],[7.278223,43.694192],[7.277835,43.694295],[7.277375,43.694388],[7.276589,43.694492],[7.275615,43.69457],[7.275121,43.69459],[7.274404,43.694592],[7.274033,43.694581],[7.272831,43.694581],[7.271147,43.694555],[7.270763,43.694563],[7.269657,43.694525],[7.26908,43.694489],[7.268879,43.694445],[7.268831,43.694379],[7.26866,43.694338],[7.268617,43.694436],[7.26845,43.694466],[7.268496,43.694608],[7.268486,43.694775],[7.268321,43.694669],[7.2684,43.694468],[7.26774,43.694489],[7.265833,43.694479],[7.263842,43.694374],[7.2626,43.694278],[7.26189,43.694206],[7.260864,43.694068],[7.259565,43.693866],[7.258164,43.693668],[7.257713,43.693584],[7.257054,43.693432],[7.255969,43.693161],[7.254309,43.692716],[7.253164,43.692464],[7.252793,43.692374],[7.252158,43.692196],[7.251629,43.692033],[7.251036,43.691865],[7.250391,43.691698],[7.250026,43.691577],[7.249972,43.691529],[7.249432,43.691398],[7.248676,43.691194],[7.247774,43.690927],[7.246969,43.690633],[7.245966,43.69021],[7.245764,43.690494],[7.24552,43.690399],[7.245703,43.690103],[7.24514,43.689873],[7.245138,43.689819],[7.244442,43.689595],[7.244014,43.689387],[7.244003,43.689311],[7.243753,43.689287],[7.243188,43.688977],[7.242812,43.688798],[7.242566,43.688603],[7.241564,43.688076],[7.240938,43.687766],[7.240893,43.687653],[7.240718,43.687646],[7.240546,43.687585],[7.240193,43.687403],[7.239455,43.68697],[7.239313,43.686874],[7.239317,43.686784],[7.239073,43.686691],[7.238567,43.686315],[7.238396,43.686138],[7.23818,43.686011],[7.237714,43.685645],[7.237644,43.685569],[7.237689,43.685469],[7.237379,43.68533],[7.236585,43.684701],[7.23659,43.684547],[7.236402,43.684529],[7.236012,43.684218],[7.235916,43.684114],[7.236016,43.684011],[7.235899,43.683937],[7.235801,43.683965],[7.235557,43.683788],[7.235055,43.683291],[7.234539,43.682837],[7.234159,43.682603],[7.233872,43.682328],[7.233989,43.682225],[7.233804,43.682133],[7.233673,43.682201],[7.233391,43.682002],[7.233131,43.681705],[7.233072,43.681557],[7.233251,43.681442],[7.233137,43.681349],[7.233029,43.681393],[7.232853,43.681308],[7.232621,43.681088],[7.232443,43.680856],[7.232195,43.680654],[7.232017,43.680419],[7.231831,43.680123],[7.231581,43.679777],[7.231348,43.679514],[7.23119,43.679295],[7.231137,43.679164],[7.231291,43.679068],[7.231136,43.678948],[7.231285,43.678798],[7.231305,43.678662],[7.231204,43.678503],[7.231,43.678466],[7.231167,43.678712],[7.231075,43.678808],[7.230788,43.678853],[7.230564,43.678537],[7.23079,43.678429],[7.230657,43.678251],[7.230591,43.677985],[7.230669,43.677857],[7.230777,43.677799],[7.230917,43.677415],[7.231065,43.677329],[7.231443,43.676857],[7.231484,43.676622],[7.231482,43.676402],[7.231425,43.67615],[7.231442,43.675894],[7.231309,43.675372],[7.231181,43.675188],[7.230979,43.675044],[7.230796,43.674781],[7.230607,43.674657],[7.230348,43.674347],[7.230028,43.674045],[7.229869,43.673742],[7.229684,43.673643],[7.229566,43.673507],[7.229484,43.673498],[7.229526,43.673199],[7.229636,43.67306],[7.229469,43.67285],[7.229468,43.672683],[7.229736,43.672279],[7.229876,43.671942],[7.229932,43.67148],[7.229862,43.671104],[7.229574,43.670594],[7.229438,43.670437],[7.229284,43.670109],[7.229177,43.669779],[7.22911,43.669395],[7.229117,43.66916],[7.229205,43.668697],[7.229436,43.668192],[7.229862,43.667707],[7.230025,43.667602],[7.230163,43.667308],[7.230271,43.666952],[7.230557,43.666596],[7.230677,43.666535],[7.230812,43.666382],[7.230848,43.66611],[7.230817,43.665949],[7.230743,43.665817],[7.230439,43.665585],[7.230264,43.665482],[7.229363,43.664825],[7.229125,43.664681],[7.228913,43.664507],[7.228692,43.66436],[7.227909,43.663764],[7.227601,43.66354],[7.227143,43.663235],[7.226775,43.662943],[7.226398,43.662688],[7.226017,43.662342],[7.225767,43.661973],[7.225632,43.661555],[7.225647,43.661203],[7.225768,43.660649],[7.225658,43.660157],[7.225499,43.659848],[7.225311,43.659591],[7.224704,43.659149],[7.224457,43.658952],[7.223315,43.658104],[7.222806,43.657772],[7.222764,43.657648],[7.222983,43.65747],[7.223287,43.657375],[7.223289,43.657195],[7.223206,43.65713],[7.223018,43.657114],[7.22287,43.65729],[7.22253,43.657559],[7.222152,43.657823],[7.222032,43.657929],[7.221693,43.658162],[7.221689,43.658311],[7.222009,43.658402],[7.222438,43.658668],[7.222396,43.658778],[7.222528,43.658882],[7.222713,43.658902],[7.222834,43.658988],[7.222938,43.659182],[7.223047,43.659232],[7.223624,43.659588],[7.223662,43.659748],[7.223849,43.659876],[7.223866,43.660011],[7.223846,43.660598],[7.223827,43.660742],[7.223746,43.660826],[7.223548,43.660761],[7.222813,43.660232],[7.222648,43.660076],[7.222483,43.659984],[7.22251,43.659865],[7.22228,43.659731],[7.222195,43.659756],[7.221898,43.659529],[7.220753,43.658709],[7.220363,43.658417],[7.220345,43.658355],[7.220452,43.658166],[7.220655,43.658108],[7.220729,43.658006],[7.220891,43.658061],[7.221211,43.658015],[7.221355,43.657946],[7.221889,43.657484],[7.221981,43.657318],[7.22188,43.657159],[7.221752,43.657108],[7.221499,43.657212],[7.221251,43.657385],[7.221011,43.657324],[7.220831,43.657242],[7.220534,43.656968],[7.220407,43.656739],[7.220362,43.656552],[7.220596,43.656344],[7.220705,43.656355],[7.220913,43.65622],[7.220902,43.656134],[7.221028,43.656038],[7.221223,43.655996],[7.221325,43.655929],[7.22134,43.655829],[7.221204,43.655699],[7.221038,43.655668],[7.220919,43.655734],[7.220712,43.655664],[7.220499,43.65551],[7.220189,43.655198],[7.219662,43.654507],[7.219571,43.654303],[7.219688,43.654163],[7.219552,43.654038],[7.219275,43.653846],[7.219164,43.653805],[7.218976,43.653812],[7.218472,43.653512],[7.218081,43.653253],[7.217718,43.652942],[7.217284,43.652535],[7.217014,43.652245],[7.21633,43.651719],[7.215872,43.651446],[7.215264,43.651058],[7.214998,43.650867],[7.214628,43.65053],[7.214407,43.650269],[7.21379,43.649409],[7.21346,43.648891],[7.213316,43.648698],[7.213335,43.648625],[7.213298,43.648339],[7.213172,43.648163],[7.212729,43.647815],[7.212323,43.647682],[7.21206,43.647651],[7.211853,43.647711],[7.211678,43.64769],[7.211312,43.647778],[7.211156,43.647845],[7.210594,43.64797],[7.210359,43.647985],[7.210081,43.648079],[7.209701,43.648109],[7.209448,43.648082],[7.208919,43.647969],[7.208389,43.647736],[7.207979,43.6475],[7.207585,43.647226],[7.207208,43.646926],[7.206881,43.646582],[7.206731,43.646295],[7.206927,43.646189],[7.206934,43.646017],[7.206771,43.645932],[7.206298,43.645911],[7.205936,43.645874],[7.2057,43.645877],[7.204912,43.645791],[7.204736,43.645756],[7.203887,43.645686],[7.203836,43.645665],[7.203288,43.645637],[7.202724,43.64556],[7.202619,43.64548],[7.20216,43.645491],[7.201968,43.645434],[7.201546,43.645406],[7.201141,43.645466],[7.201009,43.645527],[7.20093,43.645639],[7.200601,43.645888],[7.200486,43.64601],[7.200281,43.646103],[7.200157,43.646216],[7.199935,43.646342],[7.199648,43.646551],[7.199519,43.646704],[7.19942,43.647029],[7.199419,43.647227],[7.199531,43.647484],[7.199632,43.647615],[7.199915,43.647863],[7.200188,43.64804],[7.200754,43.648484],[7.201223,43.648788],[7.201798,43.649198],[7.202391,43.649644],[7.2027,43.649856],[7.203439,43.650405],[7.203513,43.650493],[7.203567,43.650706],[7.203504,43.651118],[7.203625,43.651226],[7.203273,43.651474],[7.203158,43.651474],[7.202711,43.651812],[7.202351,43.652051],[7.202339,43.652105],[7.201862,43.652424],[7.201658,43.652518],[7.201479,43.652442],[7.201483,43.652562],[7.201189,43.652753],[7.200723,43.653135],[7.200465,43.65329],[7.2004,43.653506],[7.200458,43.653682],[7.200867,43.653892],[7.200915,43.654141],[7.20102,43.654402],[7.201118,43.654796],[7.201345,43.655471],[7.20146,43.655888],[7.201627,43.656916],[7.201666,43.65762],[7.201689,43.658317],[7.201659,43.658394],[7.201626,43.658942],[7.201456,43.659968],[7.201329,43.660548],[7.201138,43.661027],[7.200974,43.661342],[7.200824,43.661569],[7.200768,43.661802],[7.200706,43.662347],[7.200637,43.662607],[7.200485,43.662967],[7.200414,43.663206],[7.200112,43.663947],[7.200012,43.6641],[7.198866,43.663663],[7.196567,43.669214],[7.195901,43.670634],[7.194528,43.67415],[7.193979,43.675377],[7.193582,43.676311],[7.191713,43.680441],[7.191091,43.681979],[7.190008,43.684485],[7.189375,43.686537],[7.188889,43.688157],[7.188615,43.689032],[7.188403,43.689772],[7.188222,43.690314],[7.187884,43.691434],[7.187437,43.69296],[7.187314,43.693602],[7.187264,43.694061],[7.187159,43.694799],[7.187042,43.695856],[7.186878,43.696968],[7.186741,43.697685],[7.186719,43.69807],[7.186719,43.698867],[7.186835,43.699961],[7.186882,43.701278],[7.18687,43.70198],[7.186819,43.702358],[7.186712,43.702713],[7.186166,43.705156],[7.186078,43.705926],[7.185983,43.706992],[7.185835,43.707899],[7.185814,43.709128],[7.185794,43.709512],[7.185394,43.712525],[7.184518,43.718672],[7.18433,43.719978],[7.182666,43.731647],[7.182601,43.732113],[7.182268,43.734624],[7.182232,43.73598],[7.182177,43.736924],[7.182148,43.737693],[7.182157,43.738265],[7.182189,43.738853],[7.182256,43.739413],[7.182444,43.740484],[7.182764,43.741513],[7.183135,43.742707],[7.183227,43.742886],[7.183621,43.743933],[7.183903,43.744594],[7.184165,43.745022],[7.185425,43.7468],[7.187034,43.748703],[7.18766,43.749435],[7.188065,43.749788],[7.188397,43.750126],[7.188661,43.750202],[7.188987,43.750204],[7.189211,43.750271],[7.189636,43.750518],[7.190115,43.750854],[7.190699,43.751361],[7.191391,43.752017],[7.192233,43.752895],[7.192944,43.75368],[7.19374,43.754739],[7.194124,43.755212],[7.194689,43.755788],[7.195213,43.756295],[7.195306,43.756426],[7.195363,43.756611],[7.195447,43.757147],[7.195535,43.757289],[7.196127,43.757697],[7.196292,43.757872],[7.19707,43.759015],[7.197253,43.759235],[7.197844,43.759788],[7.198558,43.760291],[7.199334,43.76091],[7.200412,43.760389],[7.200609,43.760234],[7.201726,43.759584],[7.202223,43.759226],[7.202654,43.759123],[7.203015,43.758987],[7.203542,43.759033],[7.204337,43.758815],[7.204911,43.758705],[7.205401,43.75859],[7.205784,43.75856],[7.206264,43.758076],[7.206737,43.757853],[7.207313,43.757716],[7.208092,43.757691],[7.208578,43.757693],[7.209298,43.757481],[7.209458,43.757475],[7.209502,43.757383],[7.209739,43.757477],[7.21002,43.757553],[7.21005,43.757309],[7.210225,43.757173],[7.210603,43.757099],[7.210835,43.757092],[7.210939,43.757052],[7.211045,43.75677],[7.21129,43.756602],[7.211855,43.756349],[7.212398,43.756201],[7.212875,43.756119],[7.21376,43.756033],[7.214103,43.756011],[7.214596,43.755914],[7.214958,43.755921],[7.215055,43.755805],[7.215097,43.755661],[7.215098,43.755456],[7.215176,43.755273],[7.215535,43.754857],[7.215738,43.754666],[7.216267,43.75436],[7.216228,43.754138],[7.21644,43.753628],[7.21646,43.75328],[7.216246,43.752996],[7.21566,43.752356],[7.215833,43.751984],[7.216077,43.751754],[7.21664,43.751288],[7.216967,43.751313],[7.217318,43.751298],[7.217662,43.751357],[7.218328,43.751722],[7.218817,43.751616],[7.21899,43.75161],[7.219278,43.751448],[7.219628,43.751482],[7.219746,43.751199],[7.219963,43.750824],[7.219974,43.750537],[7.220099,43.749919],[7.220231,43.749507],[7.220258,43.749334],[7.220269,43.748949],[7.220234,43.748366],[7.220113,43.747745],[7.219957,43.747361],[7.219968,43.746749],[7.219942,43.745942],[7.22,43.745225],[7.220007,43.744505],[7.219954,43.744219],[7.2198,43.743953],[7.21969,43.74363],[7.219671,43.743347],[7.219617,43.743108],[7.21961,43.742905],[7.219673,43.7427],[7.219855,43.74256],[7.219939,43.742429],[7.219927,43.742124],[7.219954,43.742049],[7.220245,43.741901],[7.220516,43.741812],[7.220682,43.741727],[7.221154,43.741562],[7.221699,43.741475],[7.222005,43.741455],[7.222058,43.74162],[7.222153,43.741745],[7.222282,43.741792],[7.222544,43.741993],[7.222685,43.742056],[7.222823,43.742355],[7.223144,43.742373],[7.222925,43.742236],[7.223112,43.742224],[7.223233,43.742332],[7.223419,43.742664],[7.223667,43.742966],[7.223771,43.743185],[7.224003,43.743301],[7.224562,43.743464],[7.225023,43.743613],[7.225399,43.743892],[7.226419,43.744288],[7.226822,43.744506],[7.227142,43.744651],[7.227363,43.744829],[7.227514,43.744862],[7.228277,43.745164],[7.228668,43.745281],[7.229045,43.745371],[7.22913,43.745493],[7.229671,43.745592],[7.230364,43.745654],[7.230717,43.745641],[7.231451,43.745517],[7.231771,43.745517],[7.232566,43.745741],[7.233243,43.746137],[7.233429,43.746263],[7.233867,43.746688],[7.234312,43.747178],[7.234883,43.747876],[7.235856,43.748626],[7.236118,43.748871],[7.23641,43.749184],[7.236855,43.749617],[7.237136,43.749863],[7.237706,43.750253],[7.238053,43.750519],[7.238841,43.751046],[7.239384,43.750913],[7.239578,43.75082],[7.240485,43.750622],[7.240844,43.75049],[7.241662,43.750342],[7.242105,43.750183],[7.2421,43.750281],[7.242195,43.750638],[7.242204,43.750924],[7.242279,43.75113],[7.242283,43.751434],[7.242181,43.7516],[7.242198,43.751679],[7.245203,43.751088],[7.245348,43.751299],[7.245605,43.751387],[7.245869,43.75136],[7.245986,43.751314],[7.246191,43.751534],[7.246527,43.75154],[7.247158,43.751492],[7.247381,43.751448],[7.248436,43.751467],[7.248358,43.748541],[7.248198,43.748565],[7.248261,43.748184],[7.249182,43.746676],[7.250086,43.747015],[7.251377,43.746431],[7.252108,43.746756],[7.252183,43.746394],[7.252396,43.746257],[7.251909,43.746],[7.251611,43.74593],[7.25155,43.745848],[7.251359,43.745838],[7.251276,43.74573],[7.250995,43.745572],[7.250598,43.745299],[7.250363,43.74519],[7.250106,43.745117],[7.249909,43.745015],[7.25184,43.744738],[7.251879,43.744566],[7.252204,43.74442],[7.251256,43.743398],[7.251099,43.743193],[7.251197,43.743114],[7.251215,43.742964],[7.251087,43.742377],[7.25106,43.742126],[7.251049,43.741709],[7.251201,43.741395],[7.251243,43.741192],[7.251195,43.740768],[7.2512,43.740549],[7.251296,43.740105],[7.251384,43.739851],[7.251473,43.739903],[7.25192,43.739982],[7.25254,43.740028],[7.252643,43.740081],[7.253059,43.740374],[7.25338,43.740714],[7.25376,43.741025],[7.254019,43.741187],[7.25439,43.741365],[7.254723,43.741488],[7.25503,43.741631],[7.255668,43.741879],[7.25598,43.741913],[7.257495,43.741857],[7.257819,43.741969],[7.258501,43.742455],[7.258654,43.742743],[7.258801,43.742893],[7.258898,43.742911],[7.259186,43.743085],[7.259673,43.743471],[7.259944,43.743823],[7.259815,43.744142],[7.260783,43.744505],[7.261545,43.74438],[7.261441,43.745447],[7.261777,43.745643],[7.261929,43.745502],[7.262514,43.745414],[7.262522,43.745163],[7.262599,43.74507],[7.262927,43.744823],[7.263186,43.74469],[7.263346,43.744438],[7.263547,43.743584],[7.263654,43.743562],[7.264815,43.743753],[7.265139,43.743784],[7.266242,43.744001],[7.266863,43.744154],[7.26735,43.74432],[7.267522,43.744358],[7.267961,43.74435],[7.268352,43.744287],[7.26894,43.744166],[7.269552,43.744082],[7.270105,43.744021],[7.270574,43.743925],[7.271283,43.74375],[7.27199,43.7443],[7.272103,43.744436],[7.272324,43.744549],[7.272591,43.744768],[7.272953,43.745029],[7.273077,43.745093],[7.273447,43.745132],[7.273813,43.745062],[7.274017,43.744997],[7.274234,43.744882],[7.274322,43.744795],[7.274887,43.744064],[7.275234,43.743646],[7.275416,43.743294],[7.275722,43.743013],[7.275963,43.742912],[7.276369,43.742881],[7.276612,43.742648],[7.276805,43.742536],[7.277009,43.742482],[7.277528,43.742441],[7.277674,43.742404],[7.277727,43.742474],[7.278021,43.742556],[7.2784,43.742617],[7.278735,43.742752],[7.279438,43.742997],[7.279653,43.74295],[7.279972,43.74263],[7.28006,43.742363],[7.27963,43.741988],[7.279718,43.741172],[7.279406,43.740278],[7.27934,43.740028],[7.279435,43.73961],[7.279608,43.739227],[7.280206,43.738431],[7.280847,43.737644],[7.281193,43.737266],[7.281456,43.737069],[7.281792,43.736582],[7.281723,43.736363],[7.281264,43.73589],[7.281825,43.735587],[7.282015,43.735463],[7.282225,43.735405],[7.283573,43.734805],[7.283819,43.734777],[7.284167,43.734699],[7.28486,43.734774],[7.285259,43.734694],[7.285712,43.734681],[7.285912,43.734525],[7.285722,43.734148],[7.285854,43.73395],[7.286106,43.733994],[7.286291,43.734075],[7.286704,43.734169],[7.287582,43.73411],[7.28788,43.734236],[7.28834,43.734251],[7.289153,43.73443],[7.28927,43.734484],[7.28989,43.734595],[7.290117,43.734706],[7.290688,43.734847],[7.290948,43.734946],[7.291113,43.735071],[7.291468,43.735228],[7.291959,43.73552],[7.292291,43.735771],[7.292775,43.735949],[7.293002,43.735986],[7.293663,43.736007],[7.294264,43.736137],[7.29483,43.736355],[7.294949,43.73643],[7.295015,43.736626],[7.294998,43.736939],[7.295013,43.737113],[7.295303,43.737371],[7.295378,43.737602],[7.295525,43.737837],[7.29568,43.73798],[7.295841,43.738072],[7.29621,43.738212],[7.296759,43.738345],[7.297188,43.738563],[7.297614,43.738866],[7.298258,43.739236],[7.298351,43.739582],[7.298452,43.739772],[7.298457,43.739906],[7.298524,43.74001],[7.298242,43.740519],[7.298242,43.740646],[7.298323,43.740902],[7.298118,43.741297],[7.297564,43.741616],[7.297163,43.741912],[7.296957,43.742191],[7.296793,43.742638],[7.29674,43.74291],[7.29676,43.743251],[7.296582,43.743943],[7.296286,43.744584],[7.296094,43.744963],[7.295856,43.745313],[7.295702,43.745501],[7.295551,43.745804],[7.29539,43.746238],[7.295396,43.746648],[7.295683,43.747232],[7.29553,43.74772],[7.294873,43.748564],[7.295021,43.748796],[7.295203,43.749001],[7.295599,43.749348],[7.295604,43.749508],[7.295722,43.74971],[7.295952,43.749813],[7.296082,43.749944],[7.296173,43.750129],[7.296221,43.750347],[7.29626,43.750726],[7.296192,43.751244],[7.296234,43.75169],[7.296357,43.751885],[7.296816,43.752443],[7.296959,43.752668],[7.296869,43.752781],[7.297038,43.753181],[7.297105,43.753588],[7.29703,43.753752],[7.29703,43.754115],[7.297137,43.754397],[7.297139,43.754502],[7.297032,43.75467],[7.296563,43.755133],[7.296478,43.755438],[7.296375,43.755915],[7.296268,43.756246],[7.296222,43.756807],[7.296232,43.757012],[7.296296,43.757284],[7.296303,43.757639],[7.296328,43.757811],[7.296299,43.758039],[7.296613,43.758211],[7.296671,43.758423],[7.296742,43.758224],[7.297151,43.757925],[7.297326,43.757655],[7.297313,43.75733],[7.297358,43.757086],[7.297502,43.756668],[7.297622,43.756496],[7.297712,43.75627],[7.297886,43.756279],[7.298108,43.756213],[7.298224,43.755988],[7.298219,43.755717],[7.298407,43.755463],[7.298876,43.755085],[7.299141,43.754982],[7.299265,43.754863],[7.299469,43.754741],[7.299901,43.754605],[7.300909,43.75433],[7.301154,43.754251],[7.301534,43.754002],[7.302104,43.753706],[7.302528,43.753905],[7.304846,43.753764],[7.3051,43.753566],[7.305261,43.753542],[7.30547,43.753407],[7.30561,43.753374],[7.306028,43.75339],[7.306231,43.753422],[7.306876,43.753766],[7.307059,43.753692],[7.307233,43.753671],[7.307569,43.753693],[7.307731,43.753727],[7.307415,43.753119],[7.307633,43.752889],[7.307805,43.752587],[7.30781,43.752355],[7.307899,43.752196],[7.308203,43.751945],[7.308268,43.751831],[7.30839,43.751455],[7.308377,43.751216],[7.308298,43.750977],[7.308397,43.750805],[7.308609,43.750557],[7.308782,43.750163],[7.308996,43.749775],[7.3091,43.749466],[7.309321,43.74903],[7.309394,43.748808],[7.30958,43.748554],[7.309778,43.748215],[7.310074,43.747925],[7.310248,43.747718],[7.310849,43.747148],[7.311107,43.746831],[7.31127,43.746599],[7.311359,43.746382],[7.311453,43.746304],[7.312089,43.745521],[7.31018,43.744471],[7.309589,43.743583],[7.30974,43.743246],[7.309646,43.742805],[7.309517,43.74256],[7.309523,43.742422],[7.309586,43.742286],[7.309754,43.742086],[7.309832,43.741348],[7.309812,43.741129],[7.309662,43.740866],[7.309511,43.740261],[7.309487,43.739959],[7.308915,43.738818],[7.308133,43.73773],[7.307168,43.736722],[7.305833,43.735814],[7.304141,43.735208],[7.304034,43.735206],[7.303015,43.734858],[7.302073,43.734713],[7.299438,43.734389],[7.297985,43.734297],[7.295411,43.733956],[7.292265,43.733562],[7.292569,43.733012],[7.294009,43.73125],[7.29414,43.731022],[7.295005,43.730845],[7.295366,43.7307],[7.295916,43.730509],[7.296166,43.730611],[7.296672,43.730321],[7.297337,43.729771],[7.298604,43.728951],[7.298678,43.728877],[7.298768,43.728494],[7.298883,43.727769],[7.298966,43.727552],[7.299233,43.727554],[7.299237,43.727313],[7.299559,43.726671],[7.299562,43.726545],[7.299858,43.726068],[7.300027,43.72574],[7.300116,43.725414],[7.300375,43.724895],[7.300586,43.724627],[7.300807,43.724196],[7.300922,43.723837],[7.301496,43.723371],[7.30162,43.723431],[7.30196,43.72299],[7.301989,43.722632],[7.302117,43.722462],[7.302368,43.722427],[7.30241,43.722326],[7.302309,43.72215],[7.302488,43.722055],[7.30254,43.721927],[7.302534,43.721611],[7.30257,43.721506],[7.302833,43.721545],[7.30298,43.721517],[7.303154,43.721429],[7.303126,43.721303],[7.303333,43.721263],[7.304084,43.721651],[7.304158,43.721649],[7.304312,43.721769],[7.304612,43.722116],[7.304793,43.722294],[7.305055,43.722386],[7.305212,43.722509],[7.305545,43.722853],[7.305631,43.723304],[7.30548,43.723775],[7.305443,43.724241],[7.305593,43.724717],[7.305924,43.725063],[7.306051,43.725419],[7.306254,43.72587],[7.306476,43.726308],[7.306988,43.726584],[7.307291,43.726486],[7.307608,43.726325],[7.307831,43.726136],[7.308112,43.725826],[7.308364,43.725718],[7.308694,43.725672],[7.308976,43.725715],[7.309456,43.72573],[7.309561,43.725691],[7.309757,43.725421],[7.310125,43.725241],[7.310314,43.725062],[7.310724,43.72476],[7.311111,43.724359],[7.311301,43.724222],[7.311504,43.724012],[7.31199,43.72364],[7.312262,43.723484],[7.312633,43.723218],[7.312915,43.723115],[7.313775,43.723138],[7.313938,43.723111],[7.314235,43.722904],[7.314615,43.722884],[7.314878,43.722804],[7.315108,43.722584],[7.315462,43.722449],[7.316047,43.722418],[7.316415,43.722555],[7.316717,43.722556],[7.31682,43.722583],[7.317548,43.722922],[7.317855,43.72299],[7.318192,43.723092],[7.318361,43.723178],[7.318445,43.723275],[7.318871,43.723462],[7.319305,43.723564],[7.319548,43.723572],[7.320168,43.723625],[7.320834,43.723621],[7.321249,43.723591],[7.321258,43.723683]]]}}]}