{"type":"FeatureCollection","features":[{"type":"Feature","properties":{"nom":"Montpellier","code":"34172","codeDepartement":"34","siren":"213401722","codeEpci":"243400017","codeRegion":"76","codesPostaux":["34000","34070","34080","34090"],"population":310240},"geometry":{"type":"Polygon","coordinates":[[[3.816256,43.591224],[3.816154,43.591556],[3.816127,43.591735],[3.8162,43.591962],[3.816513,43.592284],[3.816854,43.592667],[3.817812,43.593526],[3.81806,43.593859],[3.818225,43.594227],[3.818343,43.594581],[3.818366,43.594867],[3.818353,43.595126],[3.818286,43.595298],[3.817939,43.595793],[3.817919,43.595958],[3.81803,43.596237],[3.818149,43.596359],[3.81864,43.596597],[3.818803,43.596658],[3.818896,43.59676],[3.819489,43.596897],[3.819826,43.597058],[3.820006,43.597226],[3.820223,43.597771],[3.820085,43.597907],[3.819472,43.59838],[3.818927,43.598282],[3.818596,43.598493],[3.818304,43.598767],[3.81821,43.598913],[3.818164,43.599161],[3.818223,43.599523],[3.81822,43.599686],[3.818081,43.599834],[3.817692,43.600099],[3.817348,43.600406],[3.817187,43.600602],[3.817085,43.600804],[3.817018,43.601021],[3.816801,43.601954],[3.816719,43.602209],[3.816625,43.602378],[3.816549,43.602701],[3.81668,43.602851],[3.816964,43.602945],[3.817579,43.603004],[3.817852,43.603141],[3.818031,43.603337],[3.818268,43.60353],[3.818393,43.6037],[3.818711,43.604552],[3.818868,43.604857],[3.819596,43.605693],[3.819642,43.605816],[3.819676,43.606249],[3.819611,43.606582],[3.819474,43.606971],[3.819491,43.607498],[3.819734,43.608095],[3.81978,43.608707],[3.819595,43.609519],[3.819483,43.60983],[3.819237,43.610266],[3.819015,43.610713],[3.818834,43.611136],[3.81861,43.611498],[3.81818,43.612155],[3.818029,43.612346],[3.817687,43.612954],[3.817646,43.613165],[3.817643,43.613656],[3.817324,43.61442],[3.81695,43.615078],[3.816746,43.615732],[3.816408,43.616255],[3.815718,43.617349],[3.815129,43.618049],[3.814829,43.618356],[3.814439,43.618717],[3.813848,43.61917],[3.813383,43.619631],[3.813165,43.61978],[3.812676,43.619824],[3.812364,43.619768],[3.812188,43.619833],[3.812097,43.619964],[3.811902,43.620533],[3.811742,43.620915],[3.811552,43.621238],[3.811317,43.621493],[3.8111,43.62163],[3.810908,43.621802],[3.810663,43.621955],[3.810264,43.622073],[3.809876,43.622137],[3.809142,43.62205],[3.80853,43.621921],[3.808138,43.621933],[3.807893,43.622016],[3.80774,43.622111],[3.807647,43.622349],[3.80762,43.622803],[3.807683,43.623138],[3.807584,43.623561],[3.807725,43.623738],[3.807914,43.623901],[3.808485,43.624212],[3.808907,43.624488],[3.809234,43.624667],[3.810586,43.624944],[3.810886,43.625154],[3.81106,43.625394],[3.811306,43.625878],[3.811494,43.626106],[3.812102,43.626634],[3.812672,43.627156],[3.813449,43.627542],[3.813929,43.627741],[3.815143,43.628483],[3.815566,43.628889],[3.815729,43.629223],[3.815917,43.630075],[3.816072,43.630685],[3.816183,43.630903],[3.81627,43.631176],[3.816164,43.631437],[3.816063,43.6316],[3.815122,43.632381],[3.814194,43.632965],[3.813924,43.633236],[3.813364,43.634084],[3.813242,43.634213],[3.812706,43.63441],[3.812426,43.634439],[3.811914,43.634396],[3.811441,43.634312],[3.810178,43.634069],[3.8096,43.634005],[3.809263,43.634056],[3.808751,43.63424],[3.808477,43.634293],[3.808197,43.634311],[3.807946,43.634272],[3.807655,43.634258],[3.807364,43.634288],[3.807155,43.634416],[3.807052,43.634627],[3.807257,43.634977],[3.807915,43.635543],[3.808335,43.636031],[3.808233,43.636406],[3.808042,43.637439],[3.808073,43.638026],[3.808036,43.638508],[3.808038,43.638695],[3.807882,43.638799],[3.80779,43.638807],[3.807726,43.639515],[3.807776,43.639772],[3.807961,43.64006],[3.808634,43.640422],[3.808977,43.640823],[3.809093,43.640804],[3.809577,43.640902],[3.809799,43.640897],[3.810085,43.640805],[3.810444,43.640607],[3.810842,43.640535],[3.811263,43.64062],[3.811319,43.640682],[3.811955,43.641239],[3.812379,43.641545],[3.812961,43.641865],[3.813631,43.642146],[3.814568,43.642455],[3.815858,43.642906],[3.816188,43.643015],[3.817403,43.643684],[3.817857,43.643959],[3.818236,43.644071],[3.818954,43.644058],[3.819057,43.64404],[3.819827,43.643758],[3.820131,43.643659],[3.820485,43.64351],[3.820796,43.643355],[3.821186,43.643304],[3.8214,43.643336],[3.821818,43.643508],[3.821602,43.643671],[3.821427,43.643869],[3.821068,43.644144],[3.821329,43.644074],[3.821658,43.643932],[3.822257,43.643723],[3.823091,43.643373],[3.823446,43.643244],[3.823012,43.643291],[3.822698,43.643287],[3.822507,43.643246],[3.822357,43.643154],[3.822309,43.642991],[3.822397,43.642632],[3.822358,43.642458],[3.822267,43.642258],[3.822149,43.6421],[3.821995,43.642007],[3.821826,43.641978],[3.821494,43.642019],[3.820748,43.6424],[3.820487,43.642418],[3.820194,43.641737],[3.821552,43.641648],[3.822511,43.641117],[3.822781,43.640905],[3.823094,43.64075],[3.823171,43.640672],[3.823552,43.640409],[3.824021,43.640206],[3.824146,43.640123],[3.823953,43.640023],[3.823725,43.639857],[3.823215,43.639677],[3.824293,43.638808],[3.823929,43.638552],[3.824543,43.638089],[3.825009,43.638278],[3.825782,43.638529],[3.825924,43.638563],[3.826933,43.638959],[3.827356,43.639331],[3.827614,43.639526],[3.828034,43.639782],[3.828003,43.64018],[3.828573,43.640278],[3.8287,43.640328],[3.828864,43.640716],[3.828971,43.640912],[3.829145,43.641127],[3.829877,43.64196],[3.830235,43.642443],[3.830714,43.643176],[3.830816,43.643402],[3.831004,43.643976],[3.831991,43.643775],[3.832581,43.643633],[3.833444,43.64335],[3.834141,43.643091],[3.835683,43.642544],[3.835737,43.642599],[3.835616,43.642861],[3.835612,43.64302],[3.835718,43.643212],[3.835698,43.643314],[3.835557,43.643505],[3.835552,43.643592],[3.835737,43.643828],[3.835756,43.644425],[3.835664,43.644683],[3.835547,43.644821],[3.835567,43.644882],[3.835754,43.644995],[3.835808,43.645076],[3.835795,43.64527],[3.835704,43.645442],[3.835722,43.645598],[3.836324,43.645837],[3.836724,43.645937],[3.836952,43.645968],[3.836806,43.646115],[3.836625,43.646429],[3.836623,43.646626],[3.836767,43.646773],[3.836932,43.647092],[3.837064,43.647235],[3.837432,43.647409],[3.837588,43.647558],[3.837635,43.647662],[3.837656,43.647885],[3.837783,43.648102],[3.838038,43.648677],[3.838205,43.648898],[3.838249,43.649137],[3.838173,43.649635],[3.838124,43.649721],[3.837912,43.6499],[3.837955,43.650041],[3.838537,43.65038],[3.838793,43.650226],[3.839049,43.650031],[3.839367,43.649687],[3.839837,43.649253],[3.840129,43.649083],[3.840612,43.648515],[3.841047,43.647925],[3.841242,43.647621],[3.842086,43.647916],[3.842491,43.648107],[3.84281,43.648225],[3.843299,43.648357],[3.844844,43.648799],[3.845211,43.648877],[3.845754,43.649047],[3.845955,43.64899],[3.846746,43.648829],[3.848344,43.648551],[3.848821,43.649071],[3.849001,43.649527],[3.849027,43.649637],[3.849248,43.64974],[3.850592,43.649962],[3.850842,43.651046],[3.850961,43.651197],[3.851842,43.651715],[3.852118,43.651751],[3.852306,43.651692],[3.853032,43.651033],[3.853148,43.651018],[3.854153,43.651034],[3.854226,43.651096],[3.854811,43.651297],[3.855065,43.651525],[3.855325,43.651653],[3.855858,43.651784],[3.856043,43.65188],[3.856187,43.652058],[3.85656,43.65276],[3.856827,43.653295],[3.85818,43.652984],[3.858374,43.652918],[3.858631,43.652789],[3.859289,43.652302],[3.859445,43.65222],[3.85984,43.652072],[3.860954,43.651791],[3.861109,43.65174],[3.861612,43.651447],[3.862775,43.650915],[3.863882,43.650472],[3.864309,43.650377],[3.865088,43.650261],[3.86563,43.650131],[3.865992,43.650072],[3.866263,43.649936],[3.866492,43.649743],[3.867097,43.649185],[3.86772,43.648538],[3.867849,43.648444],[3.868329,43.647937],[3.868536,43.647806],[3.868692,43.647777],[3.869474,43.647776],[3.869919,43.647749],[3.87047,43.647783],[3.870652,43.647809],[3.870948,43.647936],[3.8712,43.648085],[3.871318,43.648025],[3.871532,43.648031],[3.871857,43.648126],[3.872025,43.648212],[3.872686,43.64842],[3.873143,43.648514],[3.873402,43.648531],[3.874018,43.648527],[3.87436,43.648488],[3.874781,43.6485],[3.875181,43.648608],[3.875349,43.648705],[3.875751,43.649002],[3.875942,43.649057],[3.87655,43.649105],[3.877033,43.649122],[3.877519,43.649211],[3.878474,43.649334],[3.878781,43.649321],[3.879162,43.649197],[3.879917,43.648841],[3.880153,43.648701],[3.880446,43.648467],[3.880783,43.648132],[3.881171,43.647572],[3.881236,43.647449],[3.881624,43.646893],[3.881754,43.646583],[3.881935,43.646263],[3.882203,43.646151],[3.882643,43.646053],[3.883641,43.645897],[3.885256,43.645688],[3.885593,43.645612],[3.885797,43.645538],[3.885903,43.645412],[3.886149,43.644911],[3.886388,43.644561],[3.886564,43.644233],[3.886697,43.644074],[3.886925,43.644045],[3.887306,43.644056],[3.8877,43.644118],[3.888112,43.644121],[3.888744,43.644071],[3.889544,43.6439],[3.889942,43.643762],[3.890316,43.643522],[3.890419,43.643345],[3.890398,43.643104],[3.890214,43.642672],[3.890173,43.642463],[3.890102,43.642315],[3.889757,43.641919],[3.889679,43.641603],[3.889803,43.641433],[3.890316,43.641285],[3.890672,43.64128],[3.891619,43.641451],[3.892197,43.641535],[3.892472,43.641514],[3.892711,43.641401],[3.892878,43.641225],[3.893056,43.640954],[3.893152,43.640728],[3.89321,43.640268],[3.893369,43.639281],[3.893393,43.638887],[3.893424,43.638787],[3.893353,43.638253],[3.892672,43.637728],[3.892369,43.637549],[3.891918,43.637037],[3.891443,43.636476],[3.891206,43.636145],[3.890831,43.635883],[3.890043,43.635661],[3.889714,43.635364],[3.889543,43.634999],[3.889367,43.634416],[3.889472,43.633998],[3.889924,43.633758],[3.890844,43.633729],[3.891624,43.633668],[3.89208,43.633494],[3.892484,43.633104],[3.892976,43.632597],[3.893223,43.632359],[3.893464,43.631956],[3.8935,43.631521],[3.893545,43.630619],[3.893597,43.629983],[3.893859,43.629479],[3.894174,43.629157],[3.894732,43.628514],[3.895059,43.627825],[3.89542,43.627569],[3.895876,43.627396],[3.896287,43.627341],[3.896676,43.627219],[3.897059,43.626947],[3.89767,43.626554],[3.897933,43.6261],[3.898014,43.625647],[3.897933,43.625181],[3.897823,43.624703],[3.897772,43.624315],[3.89776,43.623846],[3.897727,43.623497],[3.897415,43.622899],[3.897151,43.62252],[3.897015,43.622373],[3.897687,43.622212],[3.899315,43.621966],[3.900121,43.621881],[3.901086,43.621828],[3.90201,43.621735],[3.902589,43.621691],[3.903026,43.621674],[3.904064,43.62167],[3.904376,43.62163],[3.906581,43.621829],[3.906863,43.621868],[3.90778,43.621898],[3.908309,43.621891],[3.908875,43.621955],[3.909777,43.622127],[3.910178,43.621755],[3.91094,43.621115],[3.911377,43.620907],[3.911688,43.620784],[3.912264,43.620501],[3.912631,43.620284],[3.913085,43.620047],[3.914369,43.619585],[3.91466,43.619528],[3.914959,43.619372],[3.915339,43.619241],[3.915758,43.619157],[3.916103,43.61911],[3.916665,43.619058],[3.91745,43.619037],[3.918638,43.619041],[3.919247,43.618794],[3.919514,43.618737],[3.920161,43.618548],[3.920509,43.618464],[3.920641,43.618404],[3.921328,43.618916],[3.922275,43.619768],[3.922709,43.620074],[3.923302,43.620396],[3.92472,43.621213],[3.925074,43.621446],[3.925275,43.621627],[3.925471,43.621866],[3.925905,43.622712],[3.926148,43.623106],[3.92638,43.623753],[3.926542,43.624048],[3.926768,43.624404],[3.927028,43.624778],[3.927474,43.625328],[3.927815,43.625645],[3.928044,43.62577],[3.928409,43.625932],[3.929409,43.626316],[3.929732,43.6265],[3.930817,43.627302],[3.931834,43.628008],[3.932234,43.628336],[3.932704,43.628651],[3.932928,43.628831],[3.933067,43.628986],[3.933465,43.628825],[3.933586,43.628681],[3.933858,43.628236],[3.93417,43.627778],[3.93437,43.627422],[3.934661,43.627459],[3.935125,43.62755],[3.935343,43.62755],[3.935659,43.627501],[3.935779,43.627296],[3.935856,43.626976],[3.936054,43.626351],[3.936271,43.625995],[3.936533,43.625472],[3.936731,43.625167],[3.936832,43.625058],[3.936432,43.625036],[3.936018,43.625059],[3.936546,43.624547],[3.936663,43.62288],[3.937224,43.622894],[3.937366,43.621876],[3.937396,43.62115],[3.937463,43.620967],[3.937581,43.620763],[3.937821,43.620449],[3.938023,43.620232],[3.939534,43.61944],[3.939128,43.618326],[3.939435,43.618186],[3.939337,43.61778],[3.939108,43.617031],[3.938982,43.61647],[3.938982,43.616306],[3.939084,43.615955],[3.939128,43.615577],[3.939243,43.614862],[3.939347,43.613945],[3.939342,43.613784],[3.938664,43.6122],[3.937801,43.610261],[3.935336,43.606182],[3.938068,43.602413],[3.939031,43.601071],[3.939573,43.600282],[3.939821,43.599821],[3.940216,43.598895],[3.940274,43.598798],[3.941287,43.59775],[3.940134,43.596515],[3.939413,43.595753],[3.939126,43.595735],[3.938869,43.59569],[3.938501,43.595496],[3.938248,43.595301],[3.938042,43.59519],[3.937627,43.595046],[3.937173,43.594961],[3.936494,43.594871],[3.936308,43.59483],[3.93494,43.594591],[3.934127,43.594483],[3.93249,43.594251],[3.931758,43.594129],[3.931152,43.594053],[3.929917,43.593862],[3.929369,43.593827],[3.928699,43.593766],[3.927805,43.593698],[3.927053,43.593658],[3.926499,43.593585],[3.92605,43.593567],[3.925318,43.593564],[3.924381,43.593518],[3.923816,43.593457],[3.922999,43.593311],[3.922288,43.593166],[3.921344,43.593018],[3.920247,43.59277],[3.919882,43.592677],[3.919295,43.592484],[3.918853,43.592322],[3.918143,43.592128],[3.91773,43.592036],[3.916893,43.591916],[3.915746,43.591713],[3.915115,43.591615],[3.914679,43.591585],[3.913427,43.591545],[3.912735,43.591492],[3.91214,43.591488],[3.911628,43.591453],[3.90926,43.591474],[3.908269,43.591474],[3.907922,43.591528],[3.907145,43.591682],[3.906856,43.591665],[3.905802,43.591566],[3.905545,43.591522],[3.904267,43.591004],[3.904108,43.590891],[3.903467,43.590536],[3.902978,43.590158],[3.902723,43.589978],[3.900815,43.588791],[3.900311,43.58873],[3.899712,43.58858],[3.898337,43.588309],[3.898075,43.588239],[3.897243,43.587914],[3.895943,43.58756],[3.894809,43.587222],[3.894217,43.58687],[3.893047,43.586392],[3.893009,43.586356],[3.892546,43.585631],[3.892368,43.585567],[3.891536,43.585002],[3.891213,43.584771],[3.890616,43.584402],[3.890277,43.584227],[3.89002,43.584118],[3.889742,43.583938],[3.887811,43.58318],[3.887297,43.58297],[3.887151,43.582962],[3.886555,43.58248],[3.886047,43.58216],[3.885869,43.582067],[3.884802,43.581648],[3.883014,43.580977],[3.882493,43.580809],[3.881304,43.580526],[3.880613,43.580345],[3.880033,43.580155],[3.879531,43.579927],[3.878446,43.579342],[3.877655,43.578947],[3.876973,43.578581],[3.876639,43.578345],[3.875846,43.577809],[3.875347,43.577489],[3.874986,43.577279],[3.874868,43.577165],[3.874558,43.576969],[3.87422,43.576795],[3.873741,43.5766],[3.872826,43.576267],[3.871712,43.576015],[3.871464,43.575903],[3.870968,43.575746],[3.870085,43.575421],[3.869343,43.575201],[3.868973,43.575112],[3.867997,43.574938],[3.867669,43.574892],[3.867528,43.574486],[3.867271,43.573986],[3.867173,43.57376],[3.86711,43.57347],[3.86701,43.573286],[3.866641,43.572801],[3.86619,43.572438],[3.866041,43.572299],[3.865855,43.571993],[3.865611,43.571803],[3.865379,43.571571],[3.864581,43.57082],[3.86316,43.569384],[3.8626,43.568843],[3.862257,43.568485],[3.861263,43.567587],[3.860775,43.567102],[3.860677,43.566955],[3.860663,43.566799],[3.860586,43.566722],[3.860463,43.567113],[3.860424,43.567559],[3.860335,43.567729],[3.860097,43.568061],[3.859866,43.568505],[3.859625,43.568917],[3.859529,43.569119],[3.859309,43.569863],[3.859179,43.570141],[3.85909,43.570232],[3.857947,43.570927],[3.857704,43.571881],[3.857389,43.572153],[3.857058,43.5725],[3.856401,43.573099],[3.855933,43.573545],[3.855497,43.57399],[3.854949,43.57466],[3.854514,43.575065],[3.85425,43.575446],[3.853952,43.57577],[3.853784,43.576125],[3.85371,43.576404],[3.853421,43.577119],[3.853374,43.577195],[3.853129,43.577371],[3.852953,43.577768],[3.852576,43.578168],[3.85225,43.578699],[3.852002,43.579053],[3.851823,43.579252],[3.851433,43.579778],[3.850796,43.580552],[3.850322,43.581176],[3.849808,43.581759],[3.849585,43.582119],[3.849222,43.582789],[3.848732,43.583494],[3.848553,43.583708],[3.84828,43.584093],[3.848093,43.584283],[3.847188,43.584906],[3.847015,43.585007],[3.846314,43.585352],[3.845723,43.585611],[3.845165,43.585898],[3.844379,43.586258],[3.843926,43.586561],[3.843307,43.587168],[3.84308,43.58733],[3.842776,43.58745],[3.842479,43.587603],[3.842259,43.587786],[3.841916,43.588202],[3.841273,43.588917],[3.840766,43.589538],[3.840529,43.589802],[3.840193,43.590254],[3.840013,43.590559],[3.83967,43.591004],[3.839578,43.591172],[3.838948,43.592131],[3.838834,43.592335],[3.838636,43.592565],[3.83846,43.592713],[3.837961,43.593076],[3.837671,43.593359],[3.837367,43.593836],[3.837177,43.594209],[3.837088,43.59431],[3.836753,43.594588],[3.83618,43.595305],[3.835832,43.594789],[3.835677,43.594624],[3.835252,43.59431],[3.835076,43.594215],[3.834683,43.59408],[3.834355,43.594012],[3.833243,43.593811],[3.832463,43.593661],[3.832148,43.593584],[3.831328,43.593352],[3.830907,43.593266],[3.830394,43.593181],[3.829719,43.593038],[3.829013,43.59282],[3.828653,43.592729],[3.828324,43.592689],[3.827814,43.592698],[3.824886,43.593097],[3.824584,43.593094],[3.823733,43.592995],[3.82154,43.592695],[3.821076,43.592645],[3.820701,43.592633],[3.819869,43.592482],[3.81838,43.591973],[3.816663,43.591378],[3.816256,43.591224]]]}}]}