{"type":"FeatureCollection","features":[{"type":"Feature","properties":{"nom":"Strasbourg","code":"67482","codeDepartement":"67","siren":"216704825","codeEpci":"246700488","codeRegion":"44","codesPostaux":["67000","67100","67200"],"population":293771},"geometry":{"type":"Polygon","coordinates":[[[7.688245,48.598109],[7.688175,48.599313],[7.68812,48.599473],[7.689747,48.599855],[7.691636,48.600282],[7.692815,48.60057],[7.694567,48.601099],[7.694485,48.601135],[7.695217,48.601938],[7.696192,48.601538],[7.696028,48.601337],[7.696151,48.601194],[7.69607,48.6011],[7.696415,48.600958],[7.696736,48.601317],[7.697464,48.601037],[7.697874,48.601409],[7.699274,48.602419],[7.699514,48.602531],[7.700431,48.603198],[7.701503,48.602497],[7.702205,48.602085],[7.702488,48.602305],[7.70258,48.602316],[7.704333,48.601248],[7.705149,48.601845],[7.705886,48.602366],[7.706927,48.603127],[7.707339,48.60288],[7.707422,48.602944],[7.708805,48.604171],[7.709517,48.604781],[7.710324,48.604247],[7.712254,48.60588],[7.714045,48.605203],[7.715103,48.605758],[7.716005,48.606275],[7.716151,48.606334],[7.716252,48.606151],[7.718192,48.606794],[7.718227,48.606638],[7.718525,48.605666],[7.720478,48.606504],[7.720553,48.606049],[7.721182,48.60625],[7.721329,48.605976],[7.72157,48.605672],[7.721742,48.605748],[7.721853,48.605396],[7.722174,48.605298],[7.72179,48.604749],[7.723019,48.60448],[7.722073,48.602934],[7.722235,48.602962],[7.722996,48.603023],[7.724245,48.60311],[7.723968,48.602656],[7.726517,48.602043],[7.727607,48.60179],[7.72976,48.601276],[7.730814,48.601745],[7.733593,48.601138],[7.733934,48.600962],[7.735105,48.600314],[7.735983,48.599939],[7.73686,48.59951],[7.737255,48.599449],[7.738127,48.59902],[7.738426,48.598833],[7.73858,48.598691],[7.739152,48.598414],[7.739807,48.598056],[7.742056,48.598613],[7.74218,48.598636],[7.74662,48.598638],[7.747818,48.59856],[7.748441,48.599096],[7.749026,48.59908],[7.749181,48.599443],[7.752092,48.599755],[7.753804,48.599908],[7.75441,48.600024],[7.754839,48.59982],[7.75496,48.599839],[7.7549,48.600172],[7.754834,48.600726],[7.754901,48.601109],[7.755052,48.601282],[7.75535,48.601534],[7.75569,48.60179],[7.756014,48.601985],[7.756296,48.602118],[7.756541,48.6022],[7.757182,48.602328],[7.75753,48.602343],[7.757833,48.602315],[7.758389,48.602228],[7.75907,48.602144],[7.7598,48.602082],[7.760516,48.602071],[7.76094,48.602146],[7.761671,48.602456],[7.76188,48.602532],[7.762144,48.602567],[7.762866,48.602529],[7.762778,48.602652],[7.763753,48.602838],[7.764458,48.603003],[7.764695,48.603081],[7.765396,48.60312],[7.765155,48.603739],[7.765102,48.604007],[7.76509,48.604354],[7.76515,48.604715],[7.765254,48.605023],[7.765404,48.605271],[7.765859,48.60568],[7.766149,48.605869],[7.76654,48.606092],[7.76689,48.606232],[7.767589,48.606412],[7.768033,48.60655],[7.768445,48.606709],[7.768857,48.606925],[7.769859,48.607663],[7.7701,48.607938],[7.770317,48.608261],[7.770463,48.608573],[7.770548,48.608819],[7.770566,48.609032],[7.770528,48.609398],[7.770448,48.609725],[7.770352,48.609958],[7.770191,48.610188],[7.769716,48.610762],[7.769448,48.611068],[7.768632,48.612191],[7.768409,48.612429],[7.768077,48.612722],[7.767861,48.613021],[7.767659,48.613444],[7.767548,48.613784],[7.767518,48.614044],[7.767577,48.614435],[7.767655,48.614651],[7.767804,48.614888],[7.768049,48.615159],[7.768476,48.615591],[7.770049,48.617115],[7.770537,48.617692],[7.771001,48.618142],[7.771319,48.618412],[7.7719,48.618806],[7.77231,48.618993],[7.772708,48.619122],[7.773035,48.619186],[7.7734,48.619195],[7.774056,48.619151],[7.774506,48.619101],[7.775961,48.618752],[7.776686,48.618533],[7.777234,48.618316],[7.778034,48.617882],[7.7784,48.61771],[7.778818,48.6176],[7.779336,48.617498],[7.779866,48.61742],[7.780269,48.617395],[7.780728,48.617393],[7.781673,48.617457],[7.782799,48.617606],[7.783348,48.617738],[7.783747,48.61789],[7.784218,48.618103],[7.784697,48.618357],[7.784882,48.618494],[7.785474,48.619068],[7.785669,48.619298],[7.785796,48.619528],[7.785873,48.619772],[7.785914,48.620354],[7.785882,48.620789],[7.785726,48.621215],[7.785438,48.621737],[7.785213,48.622196],[7.785,48.622817],[7.784937,48.623061],[7.784889,48.623604],[7.784916,48.62386],[7.785014,48.624349],[7.785124,48.624673],[7.785273,48.624948],[7.785698,48.625551],[7.786127,48.626183],[7.786465,48.626759],[7.786704,48.627094],[7.786959,48.627405],[7.787235,48.627672],[7.78751,48.627888],[7.787891,48.628122],[7.788342,48.628329],[7.788767,48.628471],[7.789237,48.628569],[7.789746,48.628634],[7.790438,48.628695],[7.791078,48.6287],[7.791568,48.62867],[7.792065,48.628574],[7.792829,48.628338],[7.793744,48.62801],[7.794646,48.627607],[7.795385,48.627214],[7.796097,48.626874],[7.797397,48.62643],[7.79882,48.62618],[7.799678,48.626045],[7.800086,48.626035],[7.801284,48.626153],[7.802171,48.626394],[7.803686,48.627249],[7.803591,48.627681],[7.803399,48.62811],[7.803286,48.628414],[7.80279,48.629221],[7.802521,48.629827],[7.802278,48.630599],[7.801881,48.631444],[7.801032,48.632844],[7.800728,48.633256],[7.800262,48.633629],[7.799802,48.633835],[7.799333,48.633998],[7.796909,48.634521],[7.795938,48.634774],[7.795446,48.634918],[7.7951,48.635046],[7.794723,48.635221],[7.794199,48.635512],[7.793921,48.635696],[7.793426,48.636338],[7.793148,48.636782],[7.792902,48.637218],[7.792729,48.637597],[7.792518,48.638267],[7.79246,48.638613],[7.79244,48.638885],[7.79245,48.639373],[7.792507,48.639939],[7.792699,48.640899],[7.792797,48.641219],[7.793095,48.641711],[7.79345,48.64206],[7.793747,48.642279],[7.794015,48.642432],[7.7946,48.642622],[7.794929,48.642686],[7.795244,48.642708],[7.795863,48.64267],[7.796282,48.642548],[7.796557,48.642418],[7.796766,48.642206],[7.796833,48.641941],[7.797048,48.641463],[7.797286,48.64085],[7.797486,48.64062],[7.79778,48.640456],[7.798026,48.640361],[7.798381,48.640276],[7.798776,48.640236],[7.799575,48.640235],[7.80016,48.640374],[7.801046,48.64072],[7.801712,48.641336],[7.802164,48.641699],[7.802468,48.641899],[7.802606,48.642036],[7.802951,48.642209],[7.804,48.642881],[7.804177,48.643039],[7.804529,48.643216],[7.80475,48.643438],[7.80502,48.64361],[7.805743,48.644433],[7.805942,48.644775],[7.806326,48.645218],[7.806603,48.645401],[7.806877,48.645538],[7.807406,48.645717],[7.808027,48.645895],[7.808953,48.646059],[7.809728,48.646135],[7.811318,48.646201],[7.811894,48.646153],[7.812542,48.646067],[7.813296,48.645934],[7.813859,48.645753],[7.814151,48.645552],[7.814511,48.645216],[7.814794,48.644832],[7.814999,48.644499],[7.815217,48.644239],[7.815731,48.643859],[7.815805,48.643822],[7.815611,48.643694],[7.814465,48.64341],[7.812634,48.64291],[7.811859,48.642451],[7.811478,48.642102],[7.811245,48.641803],[7.811166,48.641601],[7.811106,48.641274],[7.810934,48.641139],[7.81045,48.640985],[7.809874,48.640737],[7.809605,48.640715],[7.809142,48.640803],[7.809023,48.640696],[7.808883,48.640317],[7.808775,48.639687],[7.808716,48.639223],[7.808691,48.638709],[7.808697,48.638251],[7.808643,48.637955],[7.808676,48.637663],[7.808666,48.637066],[7.808993,48.637044],[7.809146,48.636815],[7.809407,48.636622],[7.809597,48.63652],[7.809842,48.63619],[7.810972,48.636685],[7.812344,48.636757],[7.813955,48.636712],[7.818599,48.636347],[7.81997,48.636241],[7.820051,48.635771],[7.820856,48.635392],[7.820974,48.635435],[7.822334,48.634818],[7.822608,48.635034],[7.825038,48.632545],[7.826667,48.632137],[7.833601,48.633695],[7.836038,48.633367],[7.834633,48.629323],[7.833496,48.626034],[7.832098,48.62289],[7.831403,48.621567],[7.830282,48.619806],[7.829119,48.618131],[7.828043,48.61681],[7.826588,48.615188],[7.823982,48.612531],[7.823394,48.61187],[7.822862,48.611319],[7.822293,48.610749],[7.8206,48.609],[7.820188,48.608568],[7.815301,48.603503],[7.813883,48.602048],[7.812604,48.600723],[7.809922,48.597963],[7.80654,48.594459],[7.804847,48.592682],[7.804172,48.59186],[7.803295,48.590653],[7.802527,48.589414],[7.80225,48.588937],[7.801607,48.587602],[7.80108,48.586245],[7.800823,48.585429],[7.800531,48.584283],[7.800327,48.583128],[7.800262,48.582572],[7.800197,48.581223],[7.800237,48.579873],[7.800277,48.579317],[7.800477,48.577973],[7.800815,48.576432],[7.801036,48.575702],[7.801347,48.574841],[7.801862,48.573595],[7.802305,48.572504],[7.802542,48.571897],[7.803002,48.570643],[7.803438,48.569335],[7.803856,48.568024],[7.804022,48.567467],[7.804337,48.56628],[7.8047,48.564726],[7.804855,48.56401],[7.805046,48.563061],[7.805233,48.561919],[7.805312,48.561311],[7.805532,48.559291],[7.805668,48.557978],[7.805821,48.555843],[7.805862,48.555029],[7.805883,48.554206],[7.805893,48.553139],[7.80586,48.551685],[7.805798,48.550559],[7.805567,48.548565],[7.805331,48.547075],[7.805069,48.545956],[7.804334,48.543517],[7.804061,48.542455],[7.803848,48.541364],[7.803691,48.540264],[7.803631,48.539459],[7.803591,48.538622],[7.803568,48.537608],[7.803573,48.537047],[7.803615,48.536075],[7.803954,48.533774],[7.804537,48.531496],[7.804986,48.53007],[7.805952,48.52685],[7.806368,48.525052],[7.806578,48.523915],[7.806664,48.523225],[7.806767,48.521488],[7.806613,48.519221],[7.80628,48.517303],[7.805831,48.515571],[7.805415,48.514289],[7.804938,48.513117],[7.804199,48.51168],[7.803344,48.510358],[7.802156,48.508706],[7.801352,48.507656],[7.800037,48.506084],[7.798434,48.504486],[7.79764,48.503783],[7.796676,48.502993],[7.796067,48.502539],[7.79483,48.501717],[7.792997,48.500697],[7.791965,48.500186],[7.790119,48.499395],[7.788193,48.498692],[7.783159,48.497079],[7.780706,48.496252],[7.778292,48.495375],[7.774721,48.493902],[7.773137,48.493199],[7.772495,48.4929],[7.771268,48.492262],[7.770795,48.491948],[7.770121,48.492572],[7.769401,48.493255],[7.769076,48.493321],[7.768212,48.493456],[7.768056,48.493469],[7.767343,48.493593],[7.766873,48.493566],[7.764687,48.493603],[7.762804,48.493579],[7.76006,48.493511],[7.758768,48.493338],[7.758019,48.493228],[7.757389,48.493154],[7.756466,48.49366],[7.755316,48.494451],[7.754981,48.4948],[7.754837,48.49487],[7.754464,48.494911],[7.753845,48.494842],[7.753499,48.494766],[7.752633,48.494534],[7.752299,48.49442],[7.751666,48.494096],[7.751421,48.49401],[7.751153,48.493976],[7.750853,48.494019],[7.750619,48.494166],[7.750275,48.494478],[7.750166,48.494636],[7.750182,48.494913],[7.75048,48.495271],[7.750766,48.495573],[7.751296,48.496004],[7.751627,48.496362],[7.751742,48.496557],[7.751823,48.496883],[7.751927,48.496974],[7.75235,48.497229],[7.752814,48.497413],[7.753084,48.497473],[7.75353,48.497492],[7.75386,48.497438],[7.754404,48.497227],[7.754904,48.49698],[7.755637,48.496548],[7.755836,48.496417],[7.756042,48.496333],[7.75648,48.496265],[7.756958,48.496265],[7.757216,48.496301],[7.757473,48.496395],[7.757912,48.49676],[7.758033,48.496912],[7.758388,48.497259],[7.758799,48.497568],[7.759019,48.497758],[7.759267,48.498013],[7.759342,48.498261],[7.759348,48.498457],[7.759472,48.498667],[7.759645,48.498872],[7.759902,48.499059],[7.760297,48.499497],[7.760468,48.499745],[7.760542,48.500032],[7.760521,48.500514],[7.760572,48.501357],[7.760555,48.501614],[7.760473,48.501838],[7.760298,48.502032],[7.760081,48.502212],[7.75973,48.502424],[7.759544,48.502711],[7.759345,48.503306],[7.759276,48.503558],[7.759176,48.504134],[7.759039,48.504625],[7.758953,48.50481],[7.758651,48.505232],[7.758207,48.505676],[7.757565,48.506042],[7.757152,48.506338],[7.756726,48.50672],[7.756147,48.507034],[7.755915,48.507242],[7.755826,48.507443],[7.755827,48.507805],[7.755913,48.508088],[7.756047,48.508355],[7.756154,48.508473],[7.756414,48.508681],[7.756595,48.508762],[7.757087,48.508783],[7.757873,48.508582],[7.758818,48.508205],[7.759077,48.508223],[7.759357,48.508412],[7.759715,48.508619],[7.759864,48.508746],[7.759968,48.509036],[7.759964,48.509164],[7.759852,48.509307],[7.759549,48.509429],[7.75932,48.509856],[7.759232,48.510165],[7.759219,48.510326],[7.759295,48.510587],[7.759416,48.510746],[7.759665,48.51095],[7.759863,48.511057],[7.760385,48.511257],[7.760644,48.51145],[7.76069,48.511944],[7.760798,48.512014],[7.761112,48.512121],[7.762087,48.512317],[7.762389,48.512389],[7.76257,48.512463],[7.762791,48.512737],[7.763046,48.513207],[7.763275,48.514002],[7.763307,48.514496],[7.763244,48.514848],[7.762862,48.51557],[7.762863,48.51572],[7.763044,48.51586],[7.763519,48.515978],[7.763892,48.516013],[7.764153,48.516001],[7.764294,48.515932],[7.7647,48.515557],[7.764954,48.51537],[7.765244,48.515309],[7.765566,48.515344],[7.765835,48.51546],[7.766487,48.515861],[7.766728,48.516054],[7.766679,48.516154],[7.766397,48.51624],[7.7658,48.516366],[7.765694,48.516462],[7.765557,48.516766],[7.765227,48.516968],[7.764904,48.517104],[7.764421,48.517268],[7.764244,48.517389],[7.764247,48.517918],[7.764152,48.518068],[7.763946,48.518177],[7.763338,48.518347],[7.76307,48.518395],[7.762426,48.518459],[7.761452,48.518347],[7.760966,48.518365],[7.760466,48.51848],[7.76023,48.518566],[7.759809,48.518835],[7.759568,48.519153],[7.759558,48.519488],[7.759718,48.520128],[7.759636,48.520438],[7.759657,48.520689],[7.759773,48.520814],[7.760263,48.520907],[7.760633,48.52091],[7.761371,48.520965],[7.761783,48.520968],[7.762277,48.521036],[7.762513,48.521103],[7.762799,48.521263],[7.762974,48.521644],[7.763086,48.521966],[7.763198,48.522407],[7.76321,48.522566],[7.763171,48.522809],[7.763061,48.523028],[7.762848,48.523271],[7.762561,48.523534],[7.761858,48.523977],[7.761677,48.52416],[7.761622,48.524286],[7.761452,48.524512],[7.761314,48.524631],[7.760878,48.524879],[7.760595,48.524974],[7.759983,48.525019],[7.759086,48.525103],[7.75821,48.525022],[7.75783,48.525033],[7.757695,48.525079],[7.756895,48.525985],[7.756787,48.526128],[7.756635,48.52653],[7.756563,48.526843],[7.756545,48.527115],[7.756595,48.527512],[7.756664,48.527684],[7.756945,48.528085],[7.757078,48.528352],[7.757066,48.528609],[7.757003,48.528974],[7.757118,48.529162],[7.757433,48.529285],[7.757751,48.529272],[7.75834,48.529186],[7.758656,48.52916],[7.759395,48.529132],[7.759775,48.529141],[7.759933,48.529232],[7.759975,48.52959],[7.760017,48.529713],[7.760257,48.530068],[7.760352,48.530674],[7.76046,48.530864],[7.760588,48.530975],[7.761019,48.531255],[7.761428,48.531584],[7.7615,48.531721],[7.761474,48.532075],[7.761331,48.532374],[7.761147,48.532643],[7.760883,48.532941],[7.760602,48.53312],[7.760426,48.533154],[7.759353,48.533209],[7.758954,48.5333],[7.758773,48.533503],[7.758624,48.533615],[7.758304,48.533768],[7.757806,48.533888],[7.757662,48.533942],[7.757616,48.534107],[7.7577,48.534239],[7.757883,48.534369],[7.758068,48.534681],[7.75797,48.535199],[7.757829,48.535499],[7.756861,48.536394],[7.756691,48.536702],[7.756539,48.53709],[7.756392,48.537541],[7.756245,48.538051],[7.756197,48.538285],[7.756282,48.538397],[7.756586,48.53863],[7.757103,48.538922],[7.757621,48.539106],[7.758355,48.539334],[7.758333,48.539476],[7.758141,48.539826],[7.758116,48.540119],[7.758027,48.540496],[7.755627,48.541434],[7.753913,48.541821],[7.753903,48.54188],[7.753299,48.541897],[7.75306,48.541932],[7.752038,48.541946],[7.751742,48.541936],[7.751447,48.54189],[7.751124,48.541759],[7.750822,48.54168],[7.75039,48.541487],[7.750439,48.542159],[7.750339,48.543813],[7.750456,48.544008],[7.750712,48.544197],[7.75086,48.544236],[7.750124,48.544413],[7.749879,48.544448],[7.749143,48.544656],[7.748806,48.54473],[7.748358,48.54486],[7.748558,48.545169],[7.748501,48.54541],[7.746388,48.545754],[7.743263,48.546557],[7.74092,48.547255],[7.740556,48.547378],[7.740206,48.547535],[7.738089,48.548459],[7.73746,48.548298],[7.736994,48.548223],[7.736681,48.548215],[7.736277,48.548255],[7.735889,48.548353],[7.735618,48.548471],[7.735373,48.548641],[7.734558,48.549282],[7.734369,48.549495],[7.734178,48.549627],[7.734107,48.549781],[7.734377,48.55109],[7.733792,48.55122],[7.733092,48.55115],[7.732621,48.550326],[7.73191,48.550349],[7.731181,48.550286],[7.730549,48.55055],[7.730999,48.551015],[7.730229,48.551172],[7.73041,48.551409],[7.73059,48.551695],[7.731231,48.552941],[7.731456,48.553537],[7.73161,48.554007],[7.731659,48.554399],[7.731589,48.55483],[7.73138,48.55596],[7.731231,48.556724],[7.731064,48.557312],[7.730753,48.557963],[7.730641,48.558144],[7.730326,48.558445],[7.729679,48.559188],[7.728761,48.560011],[7.728285,48.560352],[7.727608,48.560669],[7.72644,48.561328],[7.725825,48.56161],[7.725381,48.561765],[7.724131,48.562049],[7.723021,48.562227],[7.722327,48.562308],[7.720988,48.56238],[7.717166,48.562625],[7.716642,48.562664],[7.716428,48.562661],[7.715879,48.562499],[7.715434,48.562386],[7.714902,48.562276],[7.714476,48.562204],[7.714146,48.562202],[7.713956,48.562237],[7.713931,48.562025],[7.71399,48.56182],[7.714193,48.561555],[7.714889,48.561047],[7.715266,48.560806],[7.715662,48.560588],[7.716001,48.560439],[7.716377,48.560326],[7.716338,48.559986],[7.716212,48.55969],[7.716053,48.559569],[7.715642,48.559401],[7.715079,48.559298],[7.713859,48.559145],[7.712028,48.558901],[7.711706,48.558874],[7.711413,48.558795],[7.710479,48.558657],[7.709941,48.558597],[7.709326,48.558508],[7.708138,48.558299],[7.706913,48.558056],[7.704627,48.557731],[7.704387,48.55769],[7.704363,48.557783],[7.704492,48.558009],[7.704423,48.558404],[7.704919,48.558881],[7.705258,48.559133],[7.705527,48.559224],[7.705735,48.559243],[7.706231,48.559237],[7.706466,48.559382],[7.706724,48.559615],[7.706821,48.559803],[7.706806,48.559977],[7.706564,48.560737],[7.706311,48.560738],[7.704561,48.560518],[7.70429,48.5605],[7.703909,48.560515],[7.702617,48.560732],[7.702418,48.560751],[7.700956,48.560977],[7.698565,48.561356],[7.698159,48.56143],[7.697527,48.561419],[7.696402,48.561216],[7.695794,48.561018],[7.693936,48.560376],[7.69346,48.560997],[7.692994,48.561643],[7.693047,48.561697],[7.692536,48.562829],[7.692804,48.562892],[7.694015,48.563122],[7.697728,48.563761],[7.697672,48.563894],[7.699171,48.564156],[7.69992,48.564308],[7.700491,48.564448],[7.700949,48.564593],[7.700884,48.565377],[7.701818,48.565432],[7.70175,48.566192],[7.701798,48.56622],[7.70176,48.56679],[7.701745,48.567326],[7.702021,48.567634],[7.701644,48.567847],[7.701889,48.56807],[7.701526,48.568369],[7.701548,48.568557],[7.701612,48.568611],[7.701641,48.568876],[7.701554,48.569085],[7.70128,48.569321],[7.701357,48.569603],[7.701264,48.569802],[7.701194,48.570233],[7.701122,48.570441],[7.700937,48.570711],[7.700546,48.570916],[7.70009,48.57102],[7.699878,48.571023],[7.699565,48.570962],[7.69955,48.571329],[7.69889,48.571413],[7.698426,48.571666],[7.697771,48.572154],[7.697869,48.572337],[7.697893,48.572642],[7.69771,48.572871],[7.697764,48.573123],[7.69752,48.573219],[7.697436,48.573559],[7.697565,48.573654],[7.694817,48.574541],[7.694965,48.574677],[7.695434,48.5752],[7.695755,48.575706],[7.696062,48.57587],[7.696584,48.575902],[7.696441,48.576255],[7.69579,48.576139],[7.695413,48.576964],[7.695746,48.578693],[7.69578,48.578765],[7.696139,48.579984],[7.696288,48.580201],[7.695721,48.580383],[7.695623,48.580515],[7.695801,48.580641],[7.69551,48.580877],[7.695063,48.581114],[7.691563,48.582735],[7.690425,48.58327],[7.691202,48.584096],[7.691089,48.584248],[7.690959,48.584316],[7.690107,48.584508],[7.689949,48.584564],[7.689887,48.584646],[7.68986,48.58623],[7.688697,48.586173],[7.688763,48.586376],[7.688706,48.587134],[7.688723,48.587384],[7.688803,48.58792],[7.68886,48.589018],[7.688774,48.589595],[7.688599,48.591173],[7.688537,48.592254],[7.690568,48.592694],[7.688961,48.594607],[7.68859,48.594463],[7.688554,48.595048],[7.688453,48.596025],[7.688416,48.59627],[7.688245,48.598109]]]}}]}