{"type":"FeatureCollection","features":[{"type":"Feature","properties":{"nom":"Lille","code":"59350","codeDepartement":"59","siren":"215903501","codeEpci":"200093201","codeRegion":"32","codesPostaux":["59000","59160","59260","59777","59800"],"population":238246},"geometry":{"type":"Polygon","coordinates":[[[3.116447,50.636356],[3.118121,50.63597],[3.118449,50.635661],[3.118956,50.635213],[3.119122,50.635094],[3.119303,50.635038],[3.119629,50.635052],[3.12033,50.635303],[3.120642,50.635343],[3.121563,50.635106],[3.121329,50.634526],[3.12117,50.634078],[3.12106,50.633674],[3.120722,50.631566],[3.120847,50.630546],[3.121227,50.629584],[3.121841,50.627976],[3.121878,50.627759],[3.121836,50.627517],[3.122807,50.627308],[3.123,50.627158],[3.123633,50.626358],[3.123345,50.6263],[3.123229,50.626125],[3.123,50.62491],[3.122304,50.624152],[3.12154,50.623252],[3.122016,50.623199],[3.121984,50.62308],[3.122513,50.6228],[3.124478,50.621621],[3.124637,50.621618],[3.12547,50.621143],[3.125688,50.621129],[3.125647,50.620452],[3.125649,50.620154],[3.12487,50.620171],[3.124849,50.61987],[3.124672,50.619762],[3.124683,50.6196],[3.124643,50.619049],[3.124605,50.618834],[3.124454,50.618747],[3.123614,50.619327],[3.123478,50.619446],[3.122902,50.61986],[3.122597,50.619889],[3.122358,50.619763],[3.121631,50.619327],[3.120249,50.618577],[3.120086,50.618453],[3.118967,50.617923],[3.118518,50.617702],[3.116644,50.619187],[3.114908,50.620733],[3.112358,50.618906],[3.111569,50.619347],[3.109372,50.617258],[3.108215,50.617682],[3.107939,50.617437],[3.107111,50.616659],[3.106505,50.616992],[3.106005,50.615412],[3.104101,50.615963],[3.103537,50.616394],[3.102664,50.617115],[3.102382,50.616926],[3.100114,50.618691],[3.098602,50.618119],[3.096794,50.617146],[3.096368,50.617538],[3.095906,50.617994],[3.094013,50.617187],[3.09397,50.617243],[3.092788,50.616727],[3.092127,50.617071],[3.092009,50.617109],[3.090737,50.616537],[3.091032,50.616285],[3.08908,50.615327],[3.08708,50.617061],[3.08621,50.61789],[3.084132,50.616906],[3.084202,50.616735],[3.081884,50.615625],[3.081842,50.615679],[3.081332,50.615392],[3.07918,50.614087],[3.078659,50.613664],[3.078567,50.613535],[3.078869,50.61336],[3.077509,50.612374],[3.0775,50.612322],[3.076605,50.611584],[3.075279,50.610443],[3.075359,50.609904],[3.074954,50.60988],[3.074434,50.609549],[3.073677,50.609025],[3.073545,50.608907],[3.072917,50.608175],[3.071295,50.606828],[3.070626,50.607266],[3.069623,50.60798],[3.069203,50.608315],[3.068317,50.609063],[3.067942,50.60932],[3.067404,50.609618],[3.066623,50.609943],[3.066212,50.610096],[3.065057,50.610571],[3.064776,50.610677],[3.064446,50.610899],[3.063036,50.611878],[3.062193,50.61245],[3.061989,50.612568],[3.06143,50.611551],[3.06103,50.610779],[3.059694,50.608256],[3.058739,50.606509],[3.058444,50.606064],[3.057074,50.604382],[3.056807,50.604067],[3.055471,50.602414],[3.054662,50.601375],[3.054417,50.601044],[3.051933,50.601244],[3.051702,50.601253],[3.051745,50.601025],[3.051402,50.601002],[3.049191,50.6009],[3.048773,50.601559],[3.048355,50.602136],[3.047648,50.602868],[3.044604,50.605567],[3.043479,50.606548],[3.043069,50.606855],[3.042742,50.606368],[3.042077,50.605335],[3.041592,50.604569],[3.041069,50.604468],[3.039474,50.604364],[3.039392,50.604589],[3.038714,50.604647],[3.037769,50.60476],[3.037192,50.604872],[3.03677,50.604991],[3.036347,50.605138],[3.035433,50.605403],[3.03487,50.605632],[3.034421,50.605841],[3.034015,50.60606],[3.033132,50.606614],[3.029946,50.608448],[3.029842,50.608517],[3.029375,50.608733],[3.029141,50.60886],[3.028772,50.60914],[3.028367,50.609476],[3.026771,50.610476],[3.026213,50.610804],[3.025482,50.611122],[3.024667,50.611345],[3.023815,50.611545],[3.023675,50.612377],[3.023701,50.612639],[3.024152,50.613075],[3.024507,50.613384],[3.024966,50.613435],[3.025293,50.613575],[3.027989,50.613865],[3.027544,50.61424],[3.026852,50.61474],[3.026281,50.61512],[3.025795,50.615495],[3.025074,50.616072],[3.024709,50.616338],[3.024235,50.616787],[3.024001,50.616975],[3.023918,50.617106],[3.02348,50.618366],[3.023094,50.619506],[3.023035,50.619636],[3.022751,50.620072],[3.022213,50.620339],[3.022029,50.620462],[3.021654,50.620907],[3.021362,50.621324],[3.021258,50.621668],[3.021064,50.622103],[3.021044,50.622341],[3.020748,50.623185],[3.020582,50.623521],[3.020276,50.623911],[3.020111,50.624259],[3.019709,50.624918],[3.019139,50.62515],[3.018653,50.625427],[3.018423,50.625313],[3.016491,50.625403],[3.016368,50.62554],[3.013555,50.625569],[3.013592,50.625713],[3.014085,50.626542],[3.013859,50.626976],[3.013055,50.626988],[3.012307,50.627034],[3.011633,50.627001],[3.011211,50.627089],[3.007971,50.627102],[3.00524,50.626556],[3.004742,50.626464],[3.004204,50.626207],[3.003876,50.626087],[3.003397,50.625952],[3.002902,50.625959],[3.000777,50.625938],[3.000316,50.626502],[3.00022,50.626566],[3.000926,50.627245],[2.998279,50.628805],[2.997711,50.629165],[2.996363,50.628607],[2.9936,50.627441],[2.992436,50.628288],[2.992669,50.628421],[2.991334,50.629474],[2.990808,50.629931],[2.989451,50.630999],[2.989172,50.631206],[2.988836,50.631544],[2.988478,50.631684],[2.988162,50.631889],[2.987196,50.632565],[2.987023,50.632507],[2.986496,50.633016],[2.98628,50.633342],[2.985142,50.633068],[2.984847,50.633124],[2.984248,50.633473],[2.984045,50.633754],[2.983808,50.633847],[2.983005,50.633919],[2.982494,50.63401],[2.981742,50.634177],[2.98149,50.634279],[2.981282,50.634442],[2.981104,50.634642],[2.980812,50.634763],[2.979898,50.634899],[2.979673,50.634955],[2.979394,50.635075],[2.97921,50.635105],[2.97844,50.634827],[2.976956,50.634762],[2.976257,50.634814],[2.975632,50.634791],[2.974634,50.634728],[2.973504,50.634274],[2.972588,50.634458],[2.971828,50.633781],[2.971793,50.63384],[2.971472,50.634032],[2.971179,50.634132],[2.970911,50.63418],[2.969832,50.633545],[2.96977,50.633598],[2.967992,50.635122],[2.968249,50.635301],[2.969771,50.635078],[2.970302,50.635737],[2.970533,50.636327],[2.970471,50.636501],[2.968782,50.638333],[2.969381,50.638854],[2.969861,50.63924],[2.970302,50.639625],[2.970646,50.63995],[2.971921,50.641219],[2.972182,50.641438],[2.972532,50.64167],[2.97283,50.641834],[2.972717,50.641935],[2.972411,50.643164],[2.97229,50.643193],[2.972247,50.643811],[2.974394,50.644505],[2.9745,50.645589],[2.974526,50.645721],[2.974389,50.645746],[2.974263,50.64654],[2.974114,50.646717],[2.973876,50.647079],[2.973674,50.647486],[2.97362,50.647705],[2.973442,50.648255],[2.973186,50.648509],[2.972707,50.649047],[2.972442,50.649376],[2.972205,50.649605],[2.971942,50.649984],[2.971613,50.650492],[2.97174,50.650859],[2.97135,50.651534],[2.969735,50.653653],[2.969352,50.654776],[2.969923,50.655332],[2.968966,50.657369],[2.969718,50.657729],[2.969871,50.65779],[2.970622,50.657997],[2.971576,50.658271],[2.972274,50.65859],[2.972596,50.65868],[2.973038,50.65875],[2.97339,50.658751],[2.973568,50.658784],[2.973949,50.658912],[2.97512,50.659231],[2.975133,50.659437],[2.97621,50.659676],[2.976161,50.65919],[2.976258,50.659192],[2.976624,50.6593],[2.97739,50.659503],[2.977618,50.659584],[2.978546,50.660117],[2.978984,50.660321],[2.979822,50.660599],[2.980013,50.660482],[2.980252,50.660569],[2.981213,50.660847],[2.98184,50.660946],[2.983446,50.661101],[2.983933,50.661262],[2.984923,50.660593],[2.985869,50.659931],[2.986198,50.65976],[2.986903,50.659515],[2.987852,50.659199],[2.988219,50.659058],[2.989543,50.658457],[2.990475,50.658232],[2.992104,50.657705],[2.992399,50.65764],[2.994675,50.657061],[2.995738,50.656723],[2.996852,50.656443],[2.996997,50.656396],[2.998673,50.65566],[2.998912,50.655538],[2.999262,50.655318],[2.999794,50.654884],[3.000648,50.65415],[3.001496,50.652915],[3.001779,50.652454],[3.00214,50.652461],[3.002412,50.652514],[3.002579,50.652353],[3.003261,50.651598],[3.00341,50.651465],[3.003996,50.651038],[3.005557,50.649958],[3.005986,50.649649],[3.006613,50.649323],[3.006809,50.649296],[3.008998,50.648919],[3.00983,50.648833],[3.010081,50.648787],[3.010691,50.648508],[3.011021,50.64803],[3.011547,50.647434],[3.011898,50.64706],[3.012577,50.646062],[3.012746,50.645852],[3.014337,50.644205],[3.014671,50.644032],[3.01512,50.64372],[3.016618,50.642565],[3.017341,50.64206],[3.017985,50.641561],[3.018382,50.641156],[3.019009,50.640239],[3.019297,50.639902],[3.019656,50.639631],[3.020346,50.639316],[3.020667,50.639204],[3.021411,50.638914],[3.022377,50.638483],[3.023534,50.637903],[3.023809,50.637737],[3.025281,50.636761],[3.025763,50.636498],[3.026883,50.636092],[3.027273,50.635968],[3.028434,50.635549],[3.028868,50.63544],[3.031974,50.636907],[3.032173,50.637025],[3.032526,50.637285],[3.032866,50.637563],[3.033108,50.637868],[3.033589,50.638218],[3.03383,50.638289],[3.034749,50.63845],[3.035398,50.638575],[3.035993,50.638718],[3.036827,50.63895],[3.036746,50.640129],[3.036881,50.641564],[3.037001,50.642015],[3.037322,50.642966],[3.037938,50.643807],[3.038553,50.644427],[3.038914,50.644681],[3.039903,50.645241],[3.040785,50.645708],[3.045898,50.648078],[3.046791,50.647961],[3.04723,50.647894],[3.047683,50.647849],[3.048416,50.647949],[3.048282,50.648379],[3.049815,50.648445],[3.050093,50.648727],[3.051343,50.648698],[3.050523,50.649525],[3.051685,50.649697],[3.051657,50.649884],[3.051961,50.649856],[3.052416,50.650627],[3.053565,50.650266],[3.053686,50.650352],[3.053817,50.650287],[3.054581,50.650751],[3.054753,50.650511],[3.055342,50.649633],[3.055779,50.64973],[3.056076,50.649593],[3.056277,50.64977],[3.056995,50.649409],[3.057452,50.64958],[3.057902,50.649294],[3.059412,50.64996],[3.059319,50.65011],[3.059607,50.650398],[3.059685,50.650523],[3.059681,50.650663],[3.059595,50.650876],[3.059573,50.651044],[3.060506,50.650985],[3.061101,50.650934],[3.062187,50.650797],[3.062898,50.650678],[3.063553,50.650545],[3.064447,50.650329],[3.065369,50.650066],[3.066111,50.649826],[3.066981,50.649449],[3.067759,50.649026],[3.069073,50.648182],[3.06933,50.648001],[3.069588,50.64778],[3.069896,50.64748],[3.070316,50.646933],[3.070674,50.646393],[3.070834,50.64606],[3.070926,50.645801],[3.071168,50.644701],[3.071333,50.644209],[3.071555,50.643907],[3.07203,50.643547],[3.072754,50.643168],[3.073397,50.642866],[3.073675,50.642717],[3.074119,50.642409],[3.074406,50.642083],[3.074713,50.641696],[3.075265,50.641885],[3.075267,50.642001],[3.075583,50.642958],[3.075607,50.643121],[3.075436,50.643868],[3.075441,50.644036],[3.0758,50.644534],[3.075964,50.644471],[3.077452,50.643832],[3.077525,50.643809],[3.077715,50.644393],[3.077871,50.644771],[3.078148,50.645109],[3.078474,50.645339],[3.078768,50.645493],[3.079932,50.645961],[3.081673,50.646696],[3.082099,50.646883],[3.082988,50.647245],[3.081312,50.648503],[3.080444,50.649109],[3.081286,50.649913],[3.081767,50.649709],[3.081938,50.649835],[3.083493,50.650819],[3.08336,50.650897],[3.08354,50.651551],[3.084931,50.654386],[3.084953,50.654552],[3.085048,50.654857],[3.08518,50.655539],[3.08546,50.656438],[3.085193,50.657139],[3.085647,50.65703],[3.086378,50.65693],[3.086892,50.656892],[3.087431,50.656886],[3.08767,50.656849],[3.088827,50.656557],[3.09005,50.656143],[3.089952,50.655664],[3.089919,50.65522],[3.089968,50.654963],[3.090006,50.654423],[3.090073,50.653766],[3.090106,50.653258],[3.090171,50.652721],[3.090149,50.652291],[3.090065,50.651972],[3.089775,50.651511],[3.089662,50.651414],[3.090372,50.651212],[3.091071,50.650979],[3.091215,50.650994],[3.093691,50.650247],[3.094072,50.650207],[3.09475,50.650192],[3.095666,50.650375],[3.09695,50.650744],[3.097752,50.651004],[3.098521,50.651274],[3.10046,50.651851],[3.103383,50.6523],[3.101894,50.651114],[3.101075,50.650492],[3.10051,50.650016],[3.100635,50.649993],[3.100275,50.649689],[3.100062,50.649735],[3.098999,50.648829],[3.098785,50.648674],[3.097964,50.647904],[3.09803,50.647873],[3.09732,50.647175],[3.096418,50.646176],[3.096265,50.646068],[3.096156,50.64588],[3.096188,50.645805],[3.09562,50.645296],[3.095241,50.644975],[3.093874,50.64358],[3.093702,50.642942],[3.093882,50.642257],[3.093585,50.642215],[3.093185,50.642206],[3.093227,50.641834],[3.093571,50.640943],[3.094195,50.641166],[3.095614,50.641327],[3.09587,50.640887],[3.096757,50.640184],[3.096342,50.639935],[3.095191,50.639488],[3.095333,50.639319],[3.094532,50.63891],[3.095177,50.638138],[3.095356,50.637939],[3.095744,50.638098],[3.095959,50.638118],[3.096271,50.636937],[3.097948,50.637126],[3.097727,50.638022],[3.097726,50.638199],[3.09815,50.638304],[3.098532,50.638377],[3.098863,50.637065],[3.099199,50.635766],[3.100976,50.635495],[3.10109,50.634438],[3.102392,50.634417],[3.10269,50.63434],[3.102924,50.634233],[3.102846,50.634737],[3.10329,50.634767],[3.103239,50.6351],[3.103896,50.635139],[3.106135,50.635318],[3.106493,50.634339],[3.108132,50.634715],[3.110858,50.635248],[3.111916,50.635405],[3.112348,50.635446],[3.1128,50.635427],[3.114591,50.635185],[3.114794,50.635163],[3.114961,50.635236],[3.115555,50.63574],[3.116447,50.636356]]]}}]}